{"type":"FeatureCollection","features":[{"type":"Feature","properties":{"name":"Pan-Amazon Basin (incl. estuary)","source":"PanAmazonBasin_FeaturesToJSO (official project boundary layer, blocks Amazon + Amazon estuary, dissolved and simplified)","area_ha_original":941640480.03756},"geometry":{"type":"MultiPolygon","coordinates":[[[[-56.56083,5.94042],[-56.00844,5.81112],[-55.93442,5.80538],[-55.91583,5.82125],[-55.95792,5.87167],[-55.95625,5.89583],[-55.89319,5.96986],[-55.85042,5.97917],[-55.54375,5.99889],[-55.36458,5.97208],[-55.23042,5.90458],[-55.14792,5.9075],[-55.11847,5.88623],[-55.09208,5.89042],[-55.09347,5.90264],[-55.16542,5.94833],[-55.12875,5.97667],[-55.04125,5.99333],[-54.83875,5.995],[-54.31188,5.91208],[-54.03375,5.83979],[-53.98486,5.74931],[-53.85208,5.73167],[-53.78594,5.69971],[-53.83667,5.73319],[-53.79875,5.725],[-53.67269,5.65047],[-53.46926,5.56196],[-53.26687,5.5367],[-53.29125,5.55104],[-53.27042,5.56417],[-53.1325,5.50833],[-53.06875,5.4625],[-53.01792,5.4575],[-52.99333,5.43042],[-53.00125,5.46333],[-52.94403,5.45285],[-52.88312,5.38542],[-52.84687,5.37375],[-52.82626,5.33702],[-52.78132,5.32097],[-52.74277,5.25692],[-52.62792,5.16292],[-52.63756,5.14614],[-52.53465,5.08597],[-52.41514,4.98653],[-52.35604,4.91729],[-52.36105,4.90582],[-52.33792,4.91917],[-52.33625,4.94292],[-52.28521,4.94229],[-52.24417,4.87875],[-52.25625,4.85708],[-52.28194,4.85346],[-52.2725,4.84208],[-52.21426,4.86804],[-51.8401,4.83544],[-51.56572,4.64457],[-51.20785,4.4537],[-50.93347,4.28669],[-50.6591,3.8811],[-50.52788,3.51129],[-50.21772,2.81939],[-50.00299,2.56888],[-49.75247,2.54502],[-49.69283,2.67624],[-49.57353,2.80746],[-49.35881,2.84325],[-49.12022,2.7001],[-48.989,2.50923],[-48.75041,2.37801],[-48.65498,2.09171],[-48.4999,1.73383],[-48.45218,1.36402],[-48.45218,1.12544],[-48.39254,0.87492],[-48.16588,0.48126],[-47.68871,-0.07942],[-47.48591,-0.10328],[-47.29504,-0.22257],[-47.15189,-0.38958],[-46.95234,-0.7125],[-46.95833,-0.70417],[-46.98333,-0.70417],[-46.98333,-0.70819],[-46.95,-0.71629],[-46.93333,-0.75],[-46.92521,-0.73854],[-46.92792,-0.76625],[-46.93163,-0.75247],[-46.95833,-0.77925],[-46.95833,-0.775],[-46.975,-0.775],[-46.9625,-0.76667],[-46.95833,-0.75],[-46.95,-0.75],[-46.94583,-0.74167],[-46.95,-0.73019],[-46.98167,-0.77708],[-46.98153,-0.79153],[-46.96021,-0.77875],[-46.94931,-0.79097],[-46.95847,-0.80986],[-46.93875,-0.81],[-46.93542,-0.85458],[-46.95792,-0.85917],[-46.97713,-0.8758],[-46.91181,-0.85931],[-46.91319,-0.82014],[-46.87715,-0.81264],[-46.88833,-0.77958],[-46.87042,-0.76],[-46.85625,-0.76458],[-46.86125,-0.74687],[-46.86875,-0.74708],[-46.84625,-0.73833],[-46.82092,-0.78925],[-46.83542,-0.79187],[-46.82175,-0.80092],[-46.84208,-0.81792],[-46.83083,-0.82875],[-46.84217,-0.84752],[-46.80847,-0.83264],[-46.82014,-0.89903],[-46.76514,-0.84014],[-46.76042,-0.795],[-46.75986,-0.80819],[-46.73991,-0.81966],[-46.7275,-0.90167],[-46.73917,-0.91875],[-46.73439,-0.92958],[-46.71181,-0.89903],[-46.71675,-0.84392],[-46.69299,-0.83319],[-46.66625,-0.86125],[-46.67792,-0.81917],[-46.65958,-0.81625],[-46.67701,-0.79403],[-46.64125,-0.79083],[-46.59833,-0.84958],[-46.60333,-0.86208],[-46.62208,-0.85187],[-46.61833,-0.87875],[-46.64292,-0.90042],[-46.62458,-0.91458],[-46.63514,-0.94319],[-46.66292,-0.96167],[-46.69854,-0.95562],[-46.69901,-0.96491],[-46.65492,-0.97467],[-46.59792,-0.95687],[-46.59648,-1.00609],[-46.55542,-0.91625],[-46.53208,-0.90458],[-46.53625,-0.96521],[-46.49708,-0.87583],[-46.46681,-0.89653],[-46.45646,-0.88542],[-46.46708,-0.87375],[-46.42542,-0.86667],[-46.41333,-0.87708],[-46.42069,-0.89535],[-46.48021,-0.92],[-46.46583,-0.95257],[-46.49403,-0.97597],[-46.46764,-0.98181],[-46.46681,-1.00653],[-46.4875,-0.99917],[-46.52125,-1.01768],[-46.48597,-1.00431],[-46.47161,-1.04963],[-46.46042,-1.02625],[-46.4259,-1.02163],[-46.4081,-1.05082],[-46.42375,-1.01542],[-46.40792,-0.99771],[-46.39104,-0.99354],[-46.38153,-1.04403],[-46.34681,-1.00764],[-46.33333,-1.04021],[-46.35036,-1.08797],[-46.34613,-1.09542],[-46.32542,-1.08042],[-46.33625,-1.06958],[-46.31819,-1.02264],[-46.29461,-1.04918],[-46.30742,-1.0145],[-46.24058,-0.91008],[-46.27014,-0.91549],[-46.20292,-0.8875],[-46.17917,-0.91542],[-46.17764,-0.94986],[-46.20292,-0.94875],[-46.19042,-0.95875],[-46.22167,-0.98625],[-46.22542,-1.03104],[-46.2075,-1.03375],[-46.20604,-1.06542],[-46.22875,-1.07875],[-46.26125,-1.14458],[-46.19042,-1.07625],[-46.17625,-1.00187],[-46.15667,-1.01125],[-46.15083,-1.05208],[-46.18368,-1.13347],[-46.14208,-1.05708],[-46.07958,-1.01831],[-46.07104,-1.03875],[-46.09604,-1.05729],[-46.10208,-1.08354],[-46.08479,-1.06625],[-46.07125,-1.07667],[-46.06319,-1.10514],[-46.08327,-1.13615],[-46.05931,-1.14431],[-46.04792,-1.17958],[-46.05333,-1.13125],[-46.01833,-1.07708],[-46.00708,-1.09729],[-45.99319,-1.05181],[-45.96458,-1.055],[-45.98153,-1.06264],[-45.9675,-1.08625],[-45.98319,-1.10986],[-45.96208,-1.10708],[-45.96083,-1.13042],[-46.00042,-1.14542],[-45.99875,-1.15875],[-45.95125,-1.14226],[-45.95639,-1.22106],[-45.88903,-1.08181],[-45.85792,-1.05083],[-45.84417,-1.07375],[-45.84958,-1.10458],[-45.91201,-1.16653],[-45.90875,-1.18292],[-45.87431,-1.14931],[-45.88292,-1.17542],[-45.86757,-1.17139],[-45.87458,-1.19042],[-45.86215,-1.18562],[-45.90198,-1.23161],[-45.85486,-1.21431],[-45.85597,-1.23319],[-45.88681,-1.26215],[-45.88728,-1.2683],[-45.85931,-1.26069],[-45.84069,-1.20097],[-45.82458,-1.20958],[-45.82917,-1.17708],[-45.80375,-1.16167],[-45.81125,-1.21417],[-45.79708,-1.185],[-45.7825,-1.20542],[-45.82318,-1.25644],[-45.79903,-1.23431],[-45.79332,-1.24974],[-45.74285,-1.13986],[-45.72092,-1.13275],[-45.73111,-1.11056],[-45.71792,-1.10771],[-45.69083,-1.14125],[-45.73486,-1.20431],[-45.73958,-1.23542],[-45.70417,-1.275],[-45.70958,-1.31375],[-45.72375,-1.31792],[-45.69875,-1.31958],[-45.7025,-1.33625],[-45.68764,-1.34681],[-45.71187,-1.35896],[-45.71001,-1.38101],[-45.63931,-1.37236],[-45.62333,-1.34083],[-45.61903,-1.27764],[-45.58681,-1.26931],[-45.60542,-1.29875],[-45.59792,-1.30958],[-45.54573,-1.27115],[-45.54458,-1.33875],[-45.51208,-1.30417],[-45.52903,-1.36014],[-45.51667,-1.39542],[-45.53875,-1.40312],[-45.53014,-1.41819],[-45.505,-1.38875],[-45.49694,-1.34569],[-45.47229,-1.34375],[-45.47625,-1.32521],[-45.44681,-1.31236],[-45.45958,-1.29792],[-45.40958,-1.29917],[-45.42097,-1.35403],[-45.47486,-1.37514],[-45.48181,-1.46153],[-45.49097,-1.47403],[-45.50625,-1.455],[-45.51535,-1.45653],[-45.52038,-1.46658],[-45.50792,-1.45833],[-45.48847,-1.48264],[-45.50065,-1.49963],[-45.47854,-1.48146],[-45.45762,-1.51374],[-45.46667,-1.48042],[-45.45514,-1.45264],[-45.42333,-1.41833],[-45.42187,-1.44125],[-45.41104,-1.43813],[-45.37431,-1.39819],[-45.37625,-1.36604],[-45.34458,-1.34875],[-45.36271,-1.32063],[-45.32292,-1.32167],[-45.30583,-1.33542],[-45.29882,-1.43847],[-45.37708,-1.46146],[-45.39292,-1.48708],[-45.35097,-1.47264],[-45.36681,-1.51965],[-45.34033,-1.47787],[-45.30625,-1.4975],[-45.36851,-1.6718],[-45.36583,-1.71625],[-45.32063,-1.75138],[-45.27569,-1.73465],[-45.2425,-1.79125],[-45.24792,-1.845],[-45.21792,-1.86667],[-45.17808,-1.85141],[-45.23208,-1.83583],[-45.23,-1.79042],[-45.26813,-1.71792],[-45.29771,-1.71542],[-45.33375,-1.73583],[-45.33917,-1.69458],[-45.31069,-1.60097],[-45.27625,-1.60042],[-45.26417,-1.62125],[-45.275,-1.64708],[-45.30903,-1.64681],[-45.30486,-1.67153],[-45.30375,-1.65021],[-45.27514,-1.65319],[-45.24583,-1.635],[-45.23597,-1.67153],[-45.27403,-1.68597],[-45.27646,-1.70208],[-45.22463,-1.67748],[-45.25375,-1.61667],[-45.24833,-1.57458],[-45.20792,-1.52458],[-45.19819,-1.48764],[-45.18397,-1.53301],[-45.15958,-1.47208],[-45.1306,-1.50332],[-45.12951,-1.48069],[-45.10347,-1.47819],[-45.09986,-1.46597],[-45.13292,-1.46792],[-45.11125,-1.42125],[-45.10125,-1.46208],[-45.07875,-1.46],[-45.06937,-1.48292],[-45.00542,-1.48542],[-44.99,-1.51208],[-45.01708,-1.52125],[-45.01125,-1.53958],[-44.97792,-1.525],[-44.96292,-1.53583],[-44.96569,-1.55785],[-45.01486,-1.57514],[-45.01568,-1.58644],[-44.95479,-1.565],[-44.94729,-1.53833],[-44.9725,-1.50375],[-44.96903,-1.47764],[-44.94875,-1.48083],[-44.95708,-1.49208],[-44.93431,-1.48764],[-44.87042,-1.41042],[-44.83049,-1.42306],[-44.84271,-1.48875],[-44.88125,-1.47875],[-44.8716,-1.48997],[-44.89521,-1.53208],[-44.91625,-1.53979],[-44.90931,-1.60486],[-44.925,-1.60125],[-44.92903,-1.61236],[-44.87097,-1.60181],[-44.84747,-1.63172],[-44.83542,-1.57271],[-44.78812,-1.61125],[-44.79479,-1.58208],[-44.76986,-1.56097],[-44.76347,-1.57403],[-44.75069,-1.53486],[-44.73083,-1.54458],[-44.7475,-1.57708],[-44.71208,-1.54875],[-44.70417,-1.56736],[-44.71736,-1.59097],[-44.68542,-1.56396],[-44.65812,-1.58812],[-44.63708,-1.6175],[-44.65903,-1.66118],[-44.68826,-1.64174],[-44.78312,-1.67708],[-44.79625,-1.70542],[-44.78069,-1.72069],[-44.76321,-1.72545],[-44.77917,-1.71125],[-44.77042,-1.70333],[-44.7,-1.72708],[-44.75333,-1.78042],[-44.78941,-1.79197],[-44.71951,-1.77965],[-44.71431,-1.79153],[-44.70275,-1.76842],[-44.65889,-1.77484],[-44.64875,-1.71833],[-44.60049,-1.74069],[-44.63562,-1.78771],[-44.62042,-1.79174],[-44.60454,-1.76808],[-44.57458,-1.77458],[-44.60236,-1.78931],[-44.60312,-1.80792],[-44.56625,-1.79667],[-44.55514,-1.83819],[-44.54792,-1.81875],[-44.535,-1.82208],[-44.5525,-1.88708],[-44.58193,-1.88874],[-44.57042,-1.89958],[-44.53042,-1.87458],[-44.51431,-1.88264],[-44.48396,-1.98604],[-44.50847,-2.01153],[-44.5712,-2.02053],[-44.53292,-2.03521],[-44.50083,-2.02375],[-44.4828,-2.04125],[-44.5887,-2.13494],[-44.59486,-2.18201],[-44.67246,-2.25216],[-44.65888,-2.2865],[-44.62792,-2.29208],[-44.58792,-2.22792],[-44.55403,-2.22451],[-44.56083,-2.20625],[-44.52847,-2.15882],[-44.45354,-2.14708],[-44.40042,-2.20958],[-44.41118,-2.22333],[-44.39347,-2.22431],[-44.35764,-2.34069],[-44.38736,-2.40785],[-44.48567,-2.41625],[-44.50875,-2.43375],[-44.50292,-2.48125],[-44.50042,-2.43667],[-44.47458,-2.42833],[-44.44333,-2.44625],[-44.48931,-2.52153],[-44.51403,-2.53486],[-44.51958,-2.50875],[-44.52292,-2.52458],[-44.56158,-2.52558],[-44.53833,-2.55208],[-44.58847,-2.66069],[-44.62625,-2.70208],[-44.62333,-2.73958],[-44.65118,-2.8062],[-44.63417,-2.85792],[-44.68083,-2.92854],[-44.67681,-2.99486],[-44.60875,-3.03958],[-44.68431,-3.13569],[-44.71973,-3.15074],[-44.72681,-3.17903],[-44.77542,-3.18583],[-44.79854,-3.20479],[-44.79583,-3.24375],[-44.75597,-3.29264],[-44.78403,-3.29653],[-44.77625,-3.32083],[-44.74708,-3.32417],[-44.7325,-3.30625],[-44.76083,-3.25375],[-44.75292,-3.21958],[-44.70958,-3.19583],[-44.64736,-3.19868],[-44.60903,-3.11431],[-44.46069,-2.99451],[-44.42333,-2.93958],[-44.40722,-2.88931],[-44.41319,-2.79597],[-44.38583,-2.74875],[-44.37986,-2.66764],[-44.36708,-2.63875],[-44.35805,-2.65844],[-44.35333,-2.64],[-44.35833,-2.59],[-44.37896,-2.56875],[-44.35521,-2.53292],[-44.30779,-2.52729],[-44.31986,-2.50299],[-44.30208,-2.4875],[-44.17292,-2.45917],[-44.11181,-2.42139],[-44.10792,-2.41167],[-44.02875,-2.40625],[-44.02437,-2.44958],[-44.05446,-2.46921],[-44.02417,-2.50875],[-44.03653,-2.55653],[-44.09312,-2.57625],[-44.13708,-2.68208],[-44.19083,-2.705],[-44.21697,-2.67668],[-44.20431,-2.71847],[-44.28742,-2.75725],[-44.23104,-2.79396],[-44.235,-2.77542],[-44.18347,-2.76431],[-44.17665,-2.81631],[-44.16208,-2.82208],[-44.16014,-2.79382],[-44.13708,-2.79125],[-44.11625,-2.74792],[-44.09208,-2.76208],[-44.08937,-2.75042],[-44.07083,-2.77375],[-44.07288,-2.80308],[-44.06375,-2.78375],[-44.06792,-2.72208],[-44.02708,-2.65625],[-43.95297,-2.62509],[-43.92375,-2.55667],[-43.89292,-2.56375],[-43.89836,-2.58953],[-43.88702,-2.58152],[-43.89375,-2.52708],[-43.87135,-2.55925],[-43.87319,-2.51514],[-43.86375,-2.53708],[-43.84861,-2.52965],[-43.84125,-2.56792],[-43.83903,-2.41764],[-43.80542,-2.3925],[-43.79292,-2.39458],[-43.82417,-2.46792],[-43.81875,-2.48458],[-43.79819,-2.43931],[-43.72708,-2.38667],[-43.72653,-2.34514],[-43.73858,-2.35136],[-43.72125,-2.32292],[-43.72958,-2.30042],[-43.63375,-2.2525],[-43.60208,-2.25729],[-43.60014,-2.27236],[-43.64431,-2.27965],[-43.64132,-2.29431],[-43.66153,-2.29764],[-43.68153,-2.32903],[-43.67208,-2.34375],[-43.66375,-2.31854],[-43.62486,-2.31014],[-43.64086,-2.3981],[-43.68708,-2.39646],[-43.70917,-2.42708],[-43.73729,-2.42135],[-43.75931,-2.46569],[-43.78125,-2.47542],[-43.76792,-2.49833],[-43.7925,-2.53292],[-43.79076,-2.5441],[-43.72292,-2.475],[-43.69514,-2.48431],[-43.69431,-2.52153],[-43.68435,-2.52625],[-43.64931,-2.48264],[-43.61327,-2.52933],[-43.58125,-2.45917],[-43.57347,-2.48069],[-43.59875,-2.50458],[-43.57542,-2.52187],[-43.57514,-2.49715],[-43.54729,-2.47625],[-43.55417,-2.44542],[-43.52875,-2.41917],[-43.51083,-2.43958],[-43.51653,-2.47431],[-43.49486,-2.49736],[-43.49042,-2.47917],[-43.4725,-2.50625],[-43.44916,-2.50727],[-43.46681,-2.40681],[-43.42744,-2.42979],[-43.48292,-2.38542],[-43.48118,-2.37069],[-43.42542,-2.3375],[-43.32196,-2.33796],[-43.18958,-2.37833],[-42.81125,-2.55472],[-42.74042,-2.56542],[-42.73575,-2.56975],[-42.73792,-2.57458],[-42.73597,-2.57951],[-42.71986,-2.59014],[-42.70097,-2.58514],[-42.68896,-2.62034],[-42.69792,-2.57833],[-42.72097,-2.58236],[-42.73937,-2.55771],[-42.71458,-2.56042],[-42.59125,-2.66875],[-42.51021,-2.67875],[-42.49287,-2.70722],[-42.36792,-2.71417],[-42.34569,-2.74653],[-42.26299,-2.75903],[-42.23538,-2.80967],[-42.21292,-2.8],[-42.18875,-2.81917],[-42.14431,-2.79903],[-42.19403,-2.79403],[-42.20458,-2.77208],[-42.17958,-2.78792],[-42.15958,-2.77062],[-42.17625,-2.77583],[-42.19458,-2.75375],[-42.26118,-2.72931],[-42.24153,-2.68681],[-42.25208,-2.67792],[-42.25798,-2.68958],[-42.25486,-2.67681],[-42.24958,-2.67333],[-42.22083,-2.70375],[-42.14681,-2.72764],[-42.12104,-2.75167],[-42.14819,-2.75264],[-42.15708,-2.77208],[-42.14812,-2.75792],[-42.10167,-2.75958],[-42.0875,-2.78792],[-42.10986,-2.79597],[-42.09979,-2.80625],[-42.07533,-2.80583],[-42.06181,-2.77681],[-42.08292,-2.77625],[-42.09854,-2.74271],[-42.14542,-2.7125],[-42.22819,-2.68681],[-42.06042,-2.68958],[-42.02667,-2.75458],[-42.03514,-2.77736],[-42.05542,-2.78125],[-42.04708,-2.78708],[-42.04208,-2.78667],[-42.02431,-2.77597],[-42.02938,-2.79625],[-41.99535,-2.78306],[-42.0125,-2.76875],[-41.99644,-2.76426],[-42.01667,-2.74792],[-42.01819,-2.71347],[-41.79042,-2.73208],[-41.79339,-2.75531],[-41.83089,-2.79198],[-41.82156,-2.83731],[-41.80902,-2.8401],[-41.81693,-2.87948],[-41.79818,-2.87115],[-41.80089,-2.94115],[-41.78312,-2.94837],[-41.7761,-2.98969],[-41.75881,-2.98906],[-41.78812,-3.00983],[-41.77631,-3.02698],[-41.79693,-3.06635],[-41.78318,-3.06844],[-41.77923,-3.13252],[-41.75867,-3.15392],[-41.72284,-3.15205],[-41.70374,-3.18983],[-41.6793,-3.19309],[-41.68693,-3.21552],[-41.65839,-3.25865],[-41.65863,-3.29567],[-41.60895,-3.3067],[-41.57173,-3.34365],[-41.54673,-3.33948],[-41.49881,-3.37365],[-41.45856,-3.35815],[-41.40846,-3.37726],[-41.38867,-3.40892],[-41.33923,-3.41531],[-41.34756,-3.45167],[-41.32454,-3.49302],[-41.25423,-3.48823],[-41.22381,-3.46156],[-41.19395,-3.48087],[-41.13631,-3.5874],[-41.13139,-3.65431],[-41.1495,-3.69642],[-41.11839,-3.71927],[-41.10339,-3.76073],[-41.14006,-3.81226],[-41.12256,-3.83392],[-40.99881,-3.79531],[-40.98235,-3.80698],[-40.90395,-3.7742],[-40.92339,-3.8374],[-40.89923,-3.85115],[-40.89589,-3.88885],[-40.86423,-3.91073],[-40.84256,-3.95281],[-40.83603,-4.00254],[-40.84978,-4.01754],[-40.85548,-4.09781],[-40.80381,-4.13573],[-40.71756,-4.14031],[-40.7111,-4.16365],[-40.74395,-4.24226],[-40.76256,-4.24365],[-40.75298,-4.32198],[-40.792,-4.4017],[-40.78464,-4.45115],[-40.81881,-4.56823],[-40.81353,-4.62601],[-40.7318,-4.63142],[-40.71881,-4.68295],[-40.65339,-4.69031],[-40.62714,-4.79781],[-40.59006,-4.82573],[-40.56173,-4.81448],[-40.5445,-4.77837],[-40.51298,-4.81906],[-40.46652,-4.81177],[-40.46548,-4.82698],[-40.43888,-4.82913],[-40.42339,-4.85073],[-40.34673,-4.86531],[-40.31196,-4.90067],[-40.29062,-4.89392],[-40.21839,-4.93073],[-40.16423,-4.93531],[-40.16506,-4.96531],[-40.10048,-5.00281],[-40.10506,-5.02365],[-40.15173,-5.04177],[-40.13548,-5.13281],[-40.16652,-5.16635],[-40.13284,-5.15504],[-40.08906,-5.17148],[-40.07312,-5.16337],[-40.02089,-5.20323],[-40.04506,-5.23677],[-40.05464,-5.28865],[-40.02756,-5.29594],[-40.01714,-5.31948],[-40.02728,-5.34726],[-40.05256,-5.3576],[-40.06027,-5.40594],[-40.12367,-5.45754],[-40.10756,-5.46573],[-40.11464,-5.54281],[-40.17534,-5.54219],[-40.18478,-5.57476],[-40.22742,-5.59163],[-40.21867,-5.60504],[-40.24089,-5.62948],[-40.21468,-5.69673],[-40.24631,-5.70781],[-40.24013,-5.71837],[-40.28589,-5.75615],[-40.32173,-5.7424],[-40.37562,-5.75004],[-40.41089,-5.81365],[-40.44589,-5.8274],[-40.49089,-5.83448],[-40.52173,-5.81365],[-40.54939,-5.84231],[-40.66173,-5.84781],[-40.68075,-5.87559],[-40.672,-5.90559],[-40.71367,-5.9392],[-40.71256,-5.96615],[-40.74499,-5.98309],[-40.71513,-6.04139],[-40.7361,-6.05677],[-40.73223,-6.07181],[-40.75923,-6.09323],[-40.85062,-6.10781],[-40.84631,-6.22531],[-40.78381,-6.32115],[-40.8018,-6.3842],[-40.78923,-6.41615],[-40.79506,-6.51031],[-40.77839,-6.53406],[-40.74062,-6.53504],[-40.71756,-6.60323],[-40.74114,-6.65965],[-40.69839,-6.68017],[-40.64395,-6.67837],[-40.61367,-6.71754],[-40.56867,-6.71205],[-40.52798,-6.74365],[-40.46568,-6.72677],[-40.43391,-6.81073],[-40.41395,-6.81337],[-40.39839,-6.79198],[-40.36728,-6.80504],[-40.37777,-6.83234],[-40.42693,-6.85198],[-40.43673,-6.90448],[-40.41881,-6.94031],[-40.43152,-6.99521],[-40.41013,-7.00504],[-40.44256,-7.01531],[-40.4293,-7.02726],[-40.43812,-7.05476],[-40.51464,-7.1424],[-40.49298,-7.1576],[-40.51706,-7.27431],[-40.49884,-7.31556],[-40.52589,-7.32198],[-40.54812,-7.38309],[-40.60923,-7.43615],[-40.67173,-7.41948],[-40.67256,-7.43552],[-40.71534,-7.4667],[-40.72298,-7.50406],[-40.70339,-7.53865],[-40.62223,-7.60381],[-40.64423,-7.62115],[-40.64645,-7.66976],[-40.67339,-7.71031],[-40.67196,-7.78362],[-40.597,-7.7692],[-40.54228,-7.77754],[-40.52464,-7.78948],[-40.5136,-7.83302],[-40.56568,-7.88156],[-40.53548,-7.91281],[-40.5443,-7.9667],[-40.57464,-8.00365],[-40.59798,-8.07865],[-40.58923,-8.13365],[-40.60089,-8.15031],[-40.63423,-8.13927],[-40.70784,-8.22524],[-40.78242,-8.2533],[-40.77895,-8.30142],[-40.7895,-8.31892],[-40.81867,-8.3217],[-40.81889,-8.36098],[-40.83513,-8.38087],[-40.89367,-8.35365],[-40.90173,-8.42302],[-40.92478,-8.44622],[-40.97589,-8.39781],[-40.99673,-8.39948],[-41.04193,-8.43406],[-41.04978,-8.47726],[-41.08249,-8.47309],[-41.08464,-8.50448],[-41.10645,-8.52976],[-41.14762,-8.53331],[-41.16839,-8.58323],[-41.21117,-8.60087],[-41.19673,-8.62552],[-41.21318,-8.64781],[-41.28792,-8.65817],[-41.33402,-8.70781],[-41.3895,-8.70254],[-41.42207,-8.8016],[-41.512,-8.8742],[-41.50756,-8.89073],[-41.54117,-8.9292],[-41.54839,-8.9624],[-41.60375,-8.95567],[-41.62881,-8.98448],[-41.66839,-8.98552],[-41.68006,-9.01323],[-41.72975,-9.01625],[-41.73423,-9.09781],[-41.79832,-9.14142],[-41.79895,-9.16476],[-41.82978,-9.19372],[-41.83562,-9.24226],[-41.86728,-9.23309],[-41.87881,-9.25531],[-41.90673,-9.25531],[-41.92756,-9.28115],[-41.96373,-9.24915],[-42.00256,-9.26156],[-42.02103,-9.24698],[-42.06714,-9.25233],[-42.09714,-9.28115],[-42.137,-9.28087],[-42.14145,-9.29441],[-42.18124,-9.28281],[-42.20756,-9.29406],[-42.22021,-9.28091],[-42.26256,-9.3074],[-42.29173,-9.30719],[-42.35249,-9.34726],[-42.35964,-9.38031],[-42.41812,-9.40906],[-42.44117,-9.45858],[-42.48662,-9.46089],[-42.48589,-9.4924],[-42.59048,-9.49865],[-42.62068,-9.54052],[-42.652,-9.5367],[-42.66312,-9.55059],[-42.71714,-9.52865],[-42.71464,-9.55531],[-42.75173,-9.58365],[-42.76506,-9.61573],[-42.82117,-9.61392],[-42.83589,-9.5367],[-42.87527,-9.56552],[-42.897,-9.55392],[-42.89756,-9.52052],[-42.93006,-9.52795],[-42.94999,-9.5117],[-42.95152,-9.43885],[-42.99152,-9.4026],[-43.05652,-9.41531],[-43.06023,-9.38881],[-43.07798,-9.39865],[-43.11839,-9.37065],[-43.13617,-9.38392],[-43.14575,-9.36844],[-43.18742,-9.41962],[-43.22006,-9.4024],[-43.28332,-9.42976],[-43.2995,-9.39455],[-43.36673,-9.36948],[-43.3936,-9.3401],[-43.39593,-9.30702],[-43.44872,-9.22115],[-43.54693,-9.30844],[-43.59145,-9.30622],[-43.61131,-9.32781],[-43.61818,-9.37115],[-43.68631,-9.41781],[-43.74923,-9.42948],[-43.85048,-9.55156],[-43.83256,-9.6224],[-43.84548,-9.63698],[-43.79589,-9.68531],[-43.787,-9.75059],[-43.75689,-9.7824],[-43.72145,-9.7842],[-43.72006,-9.79948],[-43.65006,-9.83573],[-43.67027,-9.8426],[-43.68006,-9.88865],[-43.71037,-9.91542],[-43.69089,-9.92281],[-43.70284,-9.96726],[-43.65902,-9.99948],[-43.66256,-10.02531],[-43.68506,-10.03865],[-43.69228,-10.07809],[-43.76693,-10.08115],[-43.76798,-10.14448],[-43.78714,-10.19281],[-43.85339,-10.26177],[-43.82589,-10.30587],[-43.87839,-10.3192],[-43.87839,-10.34281],[-43.92082,-10.39559],[-43.92096,-10.42587],[-43.98145,-10.4042],[-44.00173,-10.41281],[-44.03564,-10.39156],[-44.04506,-10.42281],[-44.02839,-10.45531],[-44.08387,-10.49412],[-44.06034,-10.52004],[-44.06339,-10.56365],[-44.10277,-10.58365],[-44.12173,-10.62948],[-44.16239,-10.65481],[-44.20423,-10.61615],[-44.26999,-10.61837],[-44.29193,-10.58698],[-44.28312,-10.56504],[-44.31756,-10.53781],[-44.35173,-10.53448],[-44.39645,-10.60309],[-44.43706,-10.60998],[-44.44589,-10.58865],[-44.50173,-10.65406],[-44.56542,-10.6215],[-44.62964,-10.67448],[-44.6761,-10.67281],[-44.66381,-10.73531],[-44.68062,-10.78059],[-44.69589,-10.76448],[-44.75152,-10.78302],[-44.79943,-10.82198],[-44.80617,-10.86892],[-44.83978,-10.89004],[-44.85971,-10.88069],[-44.93277,-10.92781],[-44.98062,-10.8867],[-45.0186,-10.88427],[-45.07395,-10.83337],[-45.21756,-10.83115],[-45.21867,-10.81754],[-45.25957,-10.80684],[-45.26673,-10.76698],[-45.33284,-10.76059],[-45.36089,-10.70365],[-45.35423,-10.68198],[-45.392,-10.66726],[-45.44339,-10.59073],[-45.45173,-10.53733],[-45.43214,-10.52365],[-45.44298,-10.47781],[-45.41356,-10.45048],[-45.45923,-10.44781],[-45.47173,-10.42552],[-45.43089,-10.35865],[-45.4361,-10.33365],[-45.53693,-10.31115],[-45.55645,-10.22948],[-45.58784,-10.22726],[-45.64916,-10.15319],[-45.67784,-10.17476],[-45.67673,-10.19031],[-45.70339,-10.17698],[-45.76902,-10.2576],[-45.88839,-10.25698],[-45.91492,-10.29337],[-45.89881,-10.34031],[-45.90978,-10.37892],[-45.88812,-10.4017],[-45.83673,-10.38781],[-45.82617,-10.43559],[-45.88756,-10.45427],[-45.90777,-10.4726],[-45.90256,-10.49448],[-45.94527,-10.53885],[-45.98332,-10.53142],[-46.05034,-10.57448],[-46.06339,-10.60365],[-46.17423,-10.62865],[-46.18714,-10.66031],[-46.16506,-10.68531],[-46.21664,-10.7182],[-46.23423,-10.81115],[-46.30117,-10.87754],[-46.28139,-10.91548],[-46.30062,-10.95309],[-46.36006,-10.99448],[-46.38478,-11.05809],[-46.48228,-11.1192],[-46.49006,-11.15698],[-46.53423,-11.20365],[-46.58589,-11.22865],[-46.63325,-11.31615],[-46.61089,-11.31115],[-46.61173,-11.36115],[-46.47423,-11.41198],[-46.46312,-11.46476],[-46.52068,-11.50635],[-46.48312,-11.4967],[-46.4686,-11.52469],[-46.44006,-11.51781],[-46.41148,-11.55247],[-46.34902,-11.50302],[-46.30034,-11.50774],[-46.20506,-11.55198],[-46.20277,-11.58656],[-46.08839,-11.62073],[-46.13673,-11.67615],[-46.20089,-11.65365],[-46.21714,-11.67031],[-46.25388,-11.6666],[-46.28423,-11.62198],[-46.31673,-11.61615],[-46.33864,-11.63594],[-46.30784,-11.66837],[-46.31256,-11.72823],[-46.35543,-11.74794],[-46.31381,-11.7824],[-46.33548,-11.85698],[-46.29145,-11.85059],[-46.28673,-11.83365],[-46.19673,-11.8524],[-46.16867,-11.86837],[-46.13673,-11.93365],[-46.17902,-11.98802],[-46.20277,-11.98531],[-46.23589,-12.05698],[-46.27256,-12.06198],[-46.32589,-12.03601],[-46.35506,-12.03781],[-46.36881,-12.05781],[-46.36131,-12.12406],[-46.38235,-12.16344],[-46.36048,-12.21531],[-46.37706,-12.24848],[-46.36339,-12.26219],[-46.37143,-12.28315],[-46.33673,-12.29865],[-46.32923,-12.35302],[-46.28839,-12.36031],[-46.24339,-12.40031],[-46.25381,-12.49587],[-46.15714,-12.47281],[-46.14798,-12.51031],[-46.15923,-12.52531],[-46.24332,-12.54629],[-46.27634,-12.5867],[-46.28673,-12.63531],[-46.25568,-12.66385],[-46.2861,-12.69719],[-46.26339,-12.71365],[-46.28339,-12.7826],[-46.26506,-12.8349],[-46.2895,-12.86059],[-46.29478,-12.92924],[-46.25562,-12.93476],[-46.18784,-12.90837],[-46.12048,-12.90823],[-46.10256,-12.92781],[-46.15617,-12.97941],[-46.27423,-13.02031],[-46.2986,-13.07448],[-46.33023,-13.09673],[-46.29464,-13.14198],[-46.31562,-13.17892],[-46.30062,-13.19809],[-46.3286,-13.24927],[-46.30048,-13.25198],[-46.29895,-13.28309],[-46.31582,-13.30469],[-46.28887,-13.31746],[-46.14381,-13.26781],[-46.08645,-13.27087],[-46.06839,-13.29427],[-46.08568,-13.33219],[-46.22284,-13.43337],[-46.20714,-13.46615],[-46.23548,-13.48767],[-46.22339,-13.49615],[-46.2436,-13.52865],[-46.24367,-13.57504],[-46.20006,-13.5699],[-46.16437,-13.59337],[-46.25249,-13.68583],[-46.23423,-13.71115],[-46.26152,-13.73573],[-46.22339,-13.76615],[-46.28034,-13.7942],[-46.26395,-13.80504],[-46.27145,-13.82675],[-46.23256,-13.84115],[-46.26666,-13.94425],[-46.22478,-13.97254],[-46.20839,-14.01594],[-46.22978,-14.04504],[-46.22589,-14.09087],[-46.18534,-14.15642],[-46.13312,-14.14837],[-46.1118,-14.16642],[-46.11564,-14.18873],[-46.05812,-14.19504],[-46.05284,-14.24226],[-46.02464,-14.26156],[-45.99513,-14.25309],[-45.99693,-14.27656],[-45.96228,-14.2842],[-45.95617,-14.32309],[-45.93006,-14.34885],[-45.91485,-14.34448],[-45.90798,-14.36448],[-45.93235,-14.41052],[-45.97673,-14.43469],[-46.00485,-14.42938],[-46.01589,-14.47374],[-45.99298,-14.49781],[-46.00534,-14.5167],[-45.97548,-14.53948],[-45.9995,-14.60115],[-45.97933,-14.62302],[-45.99062,-14.66309],[-46.02614,-14.68015],[-46.00006,-14.70615],[-46.00034,-14.78326],[-46.01812,-14.81892],[-46.03839,-14.82531],[-46.03923,-14.87823],[-46.08617,-14.93608],[-46.12123,-14.93721],[-46.16356,-14.90631],[-46.17589,-14.94906],[-46.22395,-14.94191],[-46.23089,-14.92198],[-46.28548,-14.92698],[-46.29089,-14.90615],[-46.317,-14.90059],[-46.30214,-14.86073],[-46.3211,-14.84719],[-46.32027,-14.81552],[-46.43617,-14.75142],[-46.47062,-14.70309],[-46.48818,-14.71969],[-46.50381,-14.71198],[-46.5143,-14.74254],[-46.5395,-14.7467],[-46.54673,-14.77865],[-46.57206,-14.78442],[-46.56439,-14.8224],[-46.53562,-14.83087],[-46.52527,-14.86031],[-46.55325,-14.8983],[-46.55277,-14.92844],[-46.51603,-14.97955],[-46.53256,-15.0001],[-46.49867,-15.05892],[-46.50513,-15.07754],[-46.53534,-15.05726],[-46.57228,-15.08309],[-46.65006,-15.0849],[-46.72964,-15.03323],[-46.84923,-15.00823],[-46.92839,-15.05531],[-46.88298,-15.1124],[-46.93714,-15.20198],[-46.93784,-15.23059],[-46.92589,-15.2524],[-46.8893,-15.23559],[-46.88895,-15.28024],[-46.87006,-15.29448],[-46.94902,-15.32531],[-46.96089,-15.44365],[-47.01089,-15.49156],[-47.04619,-15.47659],[-47.08777,-15.49802],[-47.12478,-15.48087],[-47.17048,-15.48906],[-47.14812,-15.53059],[-47.18923,-15.52615],[-47.20798,-15.54865],[-47.2451,-15.5384],[-47.24006,-15.57073],[-47.30506,-15.52906],[-47.33964,-15.52698],[-47.36798,-15.54823],[-47.46298,-15.50656],[-47.4668,-15.46254],[-47.4911,-15.45615],[-47.52873,-15.49798],[-47.54006,-15.55781],[-47.57673,-15.59615],[-47.61789,-15.57731],[-47.59889,-15.54256],[-47.62339,-15.54115],[-47.64756,-15.5624],[-47.70089,-15.55406],[-47.71728,-15.57476],[-47.83784,-15.62587],[-47.85131,-15.66365],[-47.89714,-15.66406],[-47.91145,-15.63004],[-48.01256,-15.5724],[-48.05048,-15.61865],[-48.10409,-15.58379],[-48.13395,-15.61326],[-48.25652,-15.6049],[-48.24562,-15.65809],[-48.2886,-15.72094],[-48.29895,-15.7017],[-48.34131,-15.71698],[-48.36193,-15.70573],[-48.36006,-15.72469],[-48.39839,-15.73906],[-48.41673,-15.71781],[-48.45131,-15.74615],[-48.48048,-15.74115],[-48.48846,-15.78087],[-48.5295,-15.78392],[-48.64756,-15.73406],[-48.71839,-15.7674],[-48.80214,-15.74573],[-48.89367,-15.7492],[-48.90909,-15.75872],[-48.89562,-15.77524],[-48.83187,-15.79622],[-48.86256,-15.8058],[-48.84339,-15.84281],[-48.86784,-15.8467],[-48.87312,-15.87892],[-48.90173,-15.88319],[-48.90568,-15.94406],[-48.88978,-15.96142],[-48.92173,-16.0026],[-48.91631,-16.07073],[-48.95812,-16.12809],[-49.01589,-16.14281],[-49.07214,-16.24781],[-49.097,-16.24226],[-49.10539,-16.22115],[-49.13089,-16.22781],[-49.19089,-16.20781],[-49.20406,-16.17092],[-49.24284,-16.20774],[-49.2661,-16.20198],[-49.27145,-16.21809],[-49.31117,-16.23004],[-49.38298,-16.18865],[-49.40367,-16.19392],[-49.42548,-16.16698],[-49.45117,-16.16976],[-49.48649,-16.13079],[-49.542,-16.13642],[-49.55839,-16.1025],[-49.61756,-16.15865],[-49.66339,-16.17615],[-49.66756,-16.19948],[-49.71689,-16.18248],[-49.78152,-16.19135],[-49.81506,-16.25156],[-49.9011,-16.23135],[-49.90673,-16.21052],[-49.94784,-16.22337],[-49.96985,-16.25094],[-50.05506,-16.21323],[-50.21613,-16.22996],[-50.24834,-16.3309],[-50.24617,-16.35698],[-50.22603,-16.36038],[-50.22298,-16.39948],[-50.24478,-16.41955],[-50.24006,-16.45031],[-50.28207,-16.50629],[-50.30798,-16.58448],[-50.29214,-16.63448],[-50.29978,-16.68642],[-50.36006,-16.69198],[-50.38034,-16.72531],[-50.37173,-16.77906],[-50.38714,-16.79545],[-50.37464,-16.8074],[-50.39652,-16.86885],[-50.42332,-16.87976],[-50.42839,-16.90073],[-50.45068,-16.89177],[-50.46068,-16.91094],[-50.51673,-16.91406],[-50.61006,-16.87431],[-50.65659,-16.96122],[-50.68956,-16.95065],[-50.69839,-16.9824],[-50.7344,-16.97365],[-50.79673,-17.00302],[-50.82617,-16.99809],[-50.88253,-16.93994],[-50.94395,-16.93941],[-51.00395,-16.86726],[-51.05367,-16.86372],[-51.05381,-16.95365],[-51.09923,-16.99115],[-51.08228,-17.05476],[-51.11539,-17.06548],[-51.14464,-17.12198],[-51.22256,-17.11448],[-51.23923,-17.14698],[-51.27117,-17.1617],[-51.26839,-17.18865],[-51.29298,-17.18879],[-51.30256,-17.21906],[-51.38256,-17.19726],[-51.40464,-17.21823],[-51.42839,-17.19599],[-51.5095,-17.19309],[-51.51562,-17.17726],[-51.55256,-17.1999],[-51.59263,-17.17129],[-51.61423,-17.18198],[-51.63964,-17.16156],[-51.66159,-17.16955],[-51.68763,-17.2242],[-51.77548,-17.23781],[-51.78645,-17.18726],[-51.90339,-17.14573],[-51.93631,-17.04615],[-51.95339,-17.0424],[-51.98839,-17.06906],[-52.02405,-17.03024],[-52.0595,-17.06191],[-52.04589,-17.07573],[-52.04735,-17.11635],[-52.06895,-17.11608],[-52.11818,-17.16219],[-52.13395,-17.15726],[-52.12173,-17.20448],[-52.14063,-17.21146],[-52.14256,-17.23198],[-52.11339,-17.28885],[-52.12812,-17.32309],[-52.15062,-17.32024],[-52.15978,-17.29504],[-52.18089,-17.2874],[-52.27055,-17.3242],[-52.28464,-17.30385],[-52.34544,-17.30004],[-52.39106,-17.25665],[-52.40923,-17.26031],[-52.42062,-17.29059],[-52.43996,-17.28233],[-52.46478,-17.30142],[-52.52249,-17.30587],[-52.51895,-17.34476],[-52.56423,-17.38448],[-52.61964,-17.36698],[-52.62339,-17.34615],[-52.67025,-17.31687],[-52.68798,-17.3574],[-52.73964,-17.35198],[-52.76089,-17.38552],[-52.88145,-17.4317],[-52.88298,-17.45712],[-52.83895,-17.48837],[-52.84006,-17.51135],[-52.76714,-17.51448],[-52.77339,-17.54865],[-52.75089,-17.55802],[-52.76298,-17.58865],[-52.80728,-17.62254],[-52.78173,-17.63573],[-52.78131,-17.67198],[-52.81673,-17.70906],[-52.89378,-17.70075],[-52.89089,-17.73073],[-52.94068,-17.75504],[-52.94367,-17.80608],[-53.0568,-17.86392],[-53.04506,-17.88385],[-53.0735,-17.9049],[-53.06399,-17.91972],[-53.01756,-17.92281],[-53.03256,-17.98073],[-53.01673,-18.02115],[-53.06923,-18.04323],[-53.11423,-18.00615],[-53.12589,-18.0201],[-53.16871,-18.01229],[-53.17145,-18.05504],[-53.14589,-18.1374],[-53.17089,-18.20281],[-53.24673,-18.20073],[-53.29284,-18.25087],[-53.27381,-18.27365],[-53.26589,-18.34344],[-53.31708,-18.33067],[-53.31645,-18.38774],[-53.39117,-18.38892],[-53.41777,-18.37031],[-53.41881,-18.34385],[-53.47798,-18.36115],[-53.48812,-18.3292],[-53.54006,-18.34865],[-53.57506,-18.30115],[-53.61152,-18.29344],[-53.63732,-18.25662],[-53.63596,-18.2792],[-53.68256,-18.32781],[-53.73312,-18.34559],[-53.80739,-18.34398],[-53.84173,-18.32615],[-53.84839,-18.3399],[-53.87534,-18.33642],[-53.88723,-18.29965],[-53.95589,-18.32573],[-54.00881,-18.30031],[-54.06589,-18.32406],[-54.10284,-18.31004],[-54.20256,-18.35823],[-54.21438,-18.33672],[-54.23568,-18.34948],[-54.31416,-18.32392],[-54.31714,-18.35198],[-54.30173,-18.35135],[-54.29568,-18.36885],[-54.31548,-18.41115],[-54.29812,-18.42392],[-54.38034,-18.45837],[-54.36473,-18.53765],[-54.40923,-18.60865],[-54.40235,-18.64135],[-54.42228,-18.67726],[-54.48756,-18.70156],[-54.50956,-18.69731],[-54.51263,-18.67892],[-54.547,-18.67587],[-54.59756,-18.72823],[-54.60106,-18.75331],[-54.63589,-18.77656],[-54.6193,-18.81337],[-54.63506,-18.82115],[-54.64506,-18.86281],[-54.73054,-18.88079],[-54.71034,-19.01024],[-54.74381,-19.07698],[-54.68548,-19.16531],[-54.68812,-19.20392],[-54.73806,-19.23665],[-54.83798,-19.19156],[-54.86673,-19.15219],[-54.87152,-19.12948],[-54.85881,-19.12031],[-54.87409,-19.08691],[-54.84062,-19.02142],[-54.85993,-18.98848],[-54.90923,-18.98198],[-54.9195,-19.00004],[-54.94673,-18.9924],[-55.00645,-19.01087],[-55.04298,-18.99698],[-55.04256,-18.94615],[-55.02284,-18.94441],[-55.02034,-18.9217],[-54.91812,-18.83142],[-54.93298,-18.76087],[-54.89381,-18.69656],[-54.91242,-18.65872],[-54.88839,-18.64115],[-54.8893,-18.61642],[-54.90673,-18.60656],[-54.86724,-18.56722],[-54.91417,-18.51665],[-54.93666,-18.51795],[-54.95117,-18.45455],[-55.00631,-18.42892],[-55.02728,-18.35754],[-55.1311,-18.34094],[-55.18173,-18.30656],[-55.21589,-18.31156],[-55.23756,-18.2899],[-55.32839,-18.29073],[-55.33839,-18.27281],[-55.3745,-18.26892],[-55.38756,-18.24406],[-55.44339,-18.2674],[-55.48485,-18.24844],[-55.55443,-18.26615],[-55.62131,-18.24656],[-55.77406,-18.24331],[-55.78589,-18.26073],[-55.82006,-18.26323],[-55.87923,-18.25115],[-55.92923,-18.28823],[-55.99339,-18.26698],[-56.0386,-18.27781],[-56.06756,-18.30323],[-56.10443,-18.29781],[-56.15256,-18.32823],[-56.21395,-18.32705],[-56.25812,-18.38059],[-56.41839,-18.41073],[-56.48818,-18.40552],[-56.50388,-18.44351],[-56.59443,-18.45698],[-56.60673,-18.47198],[-56.62756,-18.46448],[-56.67673,-18.49698],[-56.68006,-18.51448],[-56.79117,-18.5817],[-56.82228,-18.63309],[-56.82589,-18.62031],[-56.852,-18.6242],[-56.90839,-18.68198],[-56.90284,-18.69809],[-56.94839,-18.71365],[-56.96395,-18.75004],[-56.98367,-18.75254],[-57.01562,-18.80976],[-57.04298,-18.78865],[-57.02548,-18.74594],[-57.04423,-18.74031],[-57.06145,-18.79476],[-57.11943,-18.83865],[-57.15089,-18.85198],[-57.17756,-18.83698],[-57.20756,-18.85615],[-57.21034,-18.87559],[-57.24476,-18.88659],[-57.29062,-18.87309],[-57.30089,-18.90198],[-57.33228,-18.89524],[-57.33256,-18.84781],[-57.34589,-18.85365],[-57.35048,-18.82948],[-57.37145,-18.85392],[-57.38714,-18.83531],[-57.41617,-18.83837],[-57.43214,-18.87365],[-57.40089,-18.96365],[-57.37402,-18.97219],[-57.38381,-18.98698],[-57.39839,-18.97781],[-57.41895,-19.01059],[-57.46964,-18.97281],[-57.46923,-18.92504],[-57.44173,-18.94156],[-57.43527,-18.93198],[-57.46641,-18.90854],[-57.45247,-18.85281],[-57.46256,-18.83865],[-57.49423,-18.84198],[-57.49346,-18.81892],[-57.50881,-18.82531],[-57.51256,-18.80448],[-57.53089,-18.81448],[-57.54221,-18.79962],[-57.5986,-18.81365],[-57.60895,-18.86087],[-57.63506,-18.85531],[-57.66482,-18.88892],[-57.66443,-18.94469],[-57.63034,-18.96837],[-57.65964,-18.99615],[-57.64881,-19.03198],[-57.72798,-19.0824],[-57.76989,-19.06148],[-57.78204,-19.02413],[-57.85589,-19.02865],[-57.89464,-19.07656],[-57.9211,-19.06656],[-57.97881,-19.09365],[-58.04006,-19.08323],[-58.09728,-19.11476],[-58.12728,-19.0667],[-58.14089,-19.07448],[-58.16318,-19.05448],[-58.17777,-19.05594],[-58.17423,-19.06781],[-58.22923,-19.06656],[-58.28068,-19.03948],[-58.33423,-19.04448],[-58.33662,-19.05635],[-58.36617,-19.04726],[-58.40089,-18.97754],[-58.44923,-18.95865],[-58.52645,-18.88337],[-58.58818,-18.87385],[-58.58596,-18.85809],[-58.63562,-18.84941],[-58.67673,-18.81448],[-58.64305,-18.7608],[-58.72048,-18.72115],[-58.70173,-18.63865],[-58.73089,-18.60531],[-58.73631,-18.5599],[-58.73034,-18.51754],[-58.68464,-18.46656],[-58.68006,-18.42198],[-58.69589,-18.37754],[-58.73289,-18.39298],[-58.74423,-18.44698],[-58.80534,-18.51198],[-58.79673,-18.54531],[-58.89027,-18.60375],[-58.87645,-18.61754],[-58.88964,-18.65448],[-58.87277,-18.74552],[-58.84673,-18.76323],[-58.84416,-18.78504],[-58.81256,-18.79677],[-58.81562,-18.8242],[-58.79485,-18.83031],[-58.7955,-18.84837],[-58.69006,-18.96531],[-58.59923,-19.01698],[-58.53034,-19.11809],[-58.48714,-19.1149],[-58.45534,-19.13976],[-58.38895,-19.14754],[-58.37784,-19.17892],[-58.31631,-19.18906],[-58.28923,-19.22031],[-58.23423,-19.22844],[-58.21923,-19.24344],[-58.2195,-19.28226],[-58.19423,-19.28531],[-58.18867,-19.31392],[-58.15867,-19.32455],[-58.07346,-19.4342],[-58.11923,-19.57323],[-58.16173,-19.59344],[-58.19089,-19.6476],[-58.17193,-19.68948],[-58.19735,-19.72448],[-58.2202,-19.72851],[-58.21582,-19.75684],[-58.17173,-19.75365],[-58.21443,-19.79156],[-58.22673,-19.85448],[-58.20402,-19.87802],[-58.27117,-19.87476],[-58.27673,-19.89865],[-58.31812,-19.90726],[-58.39034,-19.8917],[-58.44339,-19.93656],[-58.51034,-19.91448],[-58.527,-19.94142],[-58.59381,-19.95573],[-58.65367,-19.94642],[-58.66784,-19.92365],[-58.66693,-19.93698],[-58.71256,-19.93781],[-58.72756,-19.95198],[-58.75464,-19.93552],[-58.79339,-19.94615],[-58.81089,-19.92573],[-58.85117,-19.93754],[-58.85927,-19.7629],[-58.89013,-19.69726],[-58.92839,-19.67115],[-58.99673,-19.53531],[-59.00235,-19.49948],[-58.98062,-19.46865],[-58.99693,-19.44052],[-58.98048,-19.41073],[-59.01964,-19.33948],[-59.01556,-19.30798],[-59.05867,-19.27705],[-59.07735,-19.28198],[-59.09356,-19.23581],[-59.16506,-19.20865],[-59.2011,-19.17365],[-59.20589,-19.12531],[-59.28673,-19.05698],[-59.33235,-19.0551],[-59.36485,-19.02149],[-59.39034,-19.03059],[-59.41284,-19.01142],[-59.40714,-18.99087],[-59.4286,-18.98385],[-59.507,-18.98559],[-59.53631,-18.93281],[-59.55277,-18.93719],[-59.56055,-18.9224],[-59.57006,-18.93615],[-59.61173,-18.91198],[-59.62978,-18.88142],[-59.672,-18.8842],[-59.69777,-18.85795],[-59.72673,-18.85448],[-59.75298,-18.81031],[-59.80895,-18.75587],[-59.82582,-18.7567],[-59.88562,-18.68031],[-59.94666,-18.65754],[-59.96485,-18.59948],[-60.02306,-18.50892],[-60.0436,-18.50198],[-60.05645,-18.45004],[-60.08166,-18.42754],[-60.092,-18.37976],[-60.0811,-18.3101],[-60.10298,-18.29198],[-60.07673,-18.2117],[-60.09117,-18.21392],[-60.11506,-18.17448],[-60.14617,-18.16642],[-60.14423,-18.1167],[-60.19131,-18.10198],[-60.24249,-18.10754],[-60.25464,-18.07906],[-60.24423,-18.03323],[-60.27639,-18.03981],[-60.30131,-18.08531],[-60.33145,-18.1042],[-60.33339,-18.13031],[-60.38923,-18.17281],[-60.35777,-18.27208],[-60.3761,-18.2751],[-60.40387,-18.3215],[-60.38881,-18.34115],[-60.40339,-18.41531],[-60.46784,-18.44004],[-60.49114,-18.46681],[-60.47173,-18.49115],[-60.47013,-18.52754],[-60.49784,-18.54337],[-60.49339,-18.59531],[-60.52589,-18.61365],[-60.55056,-18.71598],[-60.61881,-18.72656],[-60.64308,-18.76365],[-60.66527,-18.76198],[-60.67256,-18.82198],[-60.72534,-18.84726],[-60.71617,-18.88007],[-60.74089,-18.87198],[-60.77214,-18.89212],[-60.77964,-18.9599],[-60.83312,-18.96226],[-60.84423,-18.97906],[-60.88798,-18.9674],[-60.90214,-18.9949],[-60.93131,-18.99031],[-60.93784,-18.9467],[-60.98395,-18.96622],[-61.01631,-19.00094],[-61.02556,-18.96515],[-61.04902,-18.94677],[-61.08207,-18.97337],[-61.09937,-18.9552],[-61.11006,-18.96948],[-61.13068,-18.9651],[-61.14339,-18.9449],[-61.19409,-18.96538],[-61.22298,-18.93906],[-61.24395,-18.94892],[-61.27345,-18.89674],[-61.31534,-18.92004],[-61.31923,-18.94448],[-61.38131,-18.94531],[-61.39006,-18.9574],[-61.42923,-18.93823],[-61.45339,-18.98365],[-61.52339,-18.99469],[-61.52312,-19.03392],[-61.54902,-19.04406],[-61.62339,-19.03281],[-61.66006,-18.95754],[-61.69645,-19.01726],[-61.75048,-19.01365],[-61.75263,-19.0517],[-61.78693,-19.04281],[-61.79513,-19.00809],[-61.84173,-18.9749],[-61.90923,-19.0024],[-61.94298,-18.98184],[-61.97606,-19.00998],[-62.03832,-19.00587],[-62.05256,-19.04594],[-62.04062,-19.08726],[-62.0711,-19.10781],[-62.0601,-19.16023],[-62.11173,-19.21198],[-62.11423,-19.27281],[-62.14381,-19.30573],[-62.14645,-19.33309],[-62.19867,-19.37754],[-62.21909,-19.42872],[-62.30756,-19.48281],[-62.33009,-19.52472],[-62.31256,-19.54031],[-62.31617,-19.56524],[-62.37339,-19.66573],[-62.56645,-19.85309],[-62.68839,-19.8974],[-62.74082,-19.89726],[-62.77964,-19.92281],[-62.89728,-19.93955],[-62.94256,-19.9824],[-63.02867,-19.9842],[-63.04923,-20.0074],[-63.11062,-20.01524],[-63.18006,-20.13448],[-63.20534,-20.1417],[-63.20048,-20.19781],[-63.25784,-20.19726],[-63.26978,-20.23309],[-63.31756,-20.23156],[-63.35214,-20.24906],[-63.40923,-20.31531],[-63.51756,-20.32156],[-63.54506,-20.38552],[-63.56923,-20.38865],[-63.58089,-20.41573],[-63.59749,-20.4117],[-63.60895,-20.38031],[-63.62596,-20.39059],[-63.64492,-20.3799],[-63.63214,-20.40781],[-63.64943,-20.4626],[-63.68277,-20.46865],[-63.75006,-20.44698],[-63.76673,-20.49865],[-63.80756,-20.42281],[-63.83631,-20.41698],[-63.85464,-20.37865],[-63.88798,-20.3749],[-63.91048,-20.38865],[-63.93062,-20.49087],[-63.97839,-20.46635],[-64.07089,-20.47781],[-64.10763,-20.38226],[-64.22214,-20.39948],[-64.21714,-20.37323],[-64.23339,-20.34948],[-64.267,-20.35142],[-64.26978,-20.31559],[-64.36867,-20.30809],[-64.38089,-20.21844],[-64.422,-20.22024],[-64.43756,-20.23781],[-64.46339,-20.15073],[-64.45867,-20.09941],[-64.47423,-20.09698],[-64.47103,-20.02115],[-64.49839,-20.01115],[-64.5043,-19.97392],[-64.54381,-19.96865],[-64.55798,-19.88365],[-64.58089,-19.8749],[-64.56954,-19.8274],[-64.57395,-19.77948],[-64.59006,-19.76406],[-64.57395,-19.71604],[-64.58506,-19.71115],[-64.58089,-19.65094],[-64.62839,-19.58531],[-64.63062,-19.55837],[-64.65631,-19.54448],[-64.64728,-19.45559],[-64.69131,-19.3549],[-64.68923,-19.31281],[-64.72173,-19.26731],[-64.742,-19.27337],[-64.77016,-19.24917],[-64.80798,-19.24615],[-64.83603,-19.18538],[-64.852,-19.18059],[-64.83964,-19.16531],[-64.85256,-19.14927],[-64.8945,-19.14851],[-64.92423,-19.17156],[-64.94173,-19.14823],[-64.95798,-19.15698],[-64.96985,-19.1434],[-64.98173,-19.17594],[-65.00895,-19.16788],[-65.05673,-19.1851],[-65.0622,-19.17184],[-65.13576,-19.17304],[-65.16784,-19.20392],[-65.21423,-19.08927],[-65.23923,-19.07948],[-65.25117,-19.0152],[-65.27256,-18.99198],[-65.34381,-18.98115],[-65.36289,-18.95355],[-65.38256,-18.98448],[-65.40499,-18.9892],[-65.43943,-18.92615],[-65.43298,-18.90531],[-65.45131,-18.86531],[-65.53645,-18.72705],[-65.57067,-18.70202],[-65.58589,-18.71365],[-65.5943,-18.77587],[-65.61402,-18.78385],[-65.70173,-18.74198],[-65.7342,-18.74757],[-65.74256,-18.77031],[-65.802,-18.77587],[-65.80867,-18.78976],[-65.74964,-18.8624],[-65.78582,-18.87059],[-65.83356,-18.92065],[-65.86023,-18.90756],[-65.85818,-18.98135],[-65.94673,-18.91885],[-66.0195,-18.96274],[-66.07839,-18.94642],[-66.03298,-19.01781],[-66.08673,-19.03573],[-66.08256,-19.07448],[-66.11228,-19.09309],[-66.322,-19.06392],[-66.34006,-19.01698],[-66.37499,-19.00337],[-66.36534,-18.97455],[-66.40256,-18.94726],[-66.43589,-18.9624],[-66.47339,-18.87365],[-66.49173,-18.87219],[-66.51832,-18.82587],[-66.53756,-18.70927],[-66.57443,-18.69865],[-66.58381,-18.64865],[-66.60381,-18.64448],[-66.59714,-18.59781],[-66.65145,-18.46254],[-66.82964,-18.20698],[-66.82631,-18.1951],[-66.77875,-18.18877],[-66.78589,-18.16865],[-66.77266,-18.15969],[-66.81478,-18.11191],[-66.80832,-18.09476],[-66.83777,-18.05344],[-66.72562,-17.96976],[-66.73173,-17.94156],[-66.71339,-17.89698],[-66.80249,-17.82087],[-66.7945,-17.78087],[-66.89256,-17.66615],[-66.87173,-17.61747],[-66.92027,-17.54365],[-67.00812,-17.46754],[-67.04173,-17.4999],[-67.12999,-17.42504],[-67.13318,-17.38448],[-67.14964,-17.37198],[-67.13943,-17.3549],[-67.19756,-17.28198],[-67.20985,-17.24198],[-67.23131,-17.24948],[-67.32742,-17.13566],[-67.35631,-17.15448],[-67.32756,-17.25552],[-67.35656,-17.27731],[-67.42423,-17.25031],[-67.52839,-17.26198],[-67.5611,-17.24052],[-67.58735,-17.18219],[-67.62706,-17.21431],[-67.6443,-17.2542],[-67.68548,-17.25906],[-67.77256,-17.17656],[-67.84673,-17.14865],[-67.90728,-17.01698],[-67.93617,-16.99754],[-67.9452,-16.96719],[-67.96339,-16.97698],[-67.98423,-16.93865],[-68.02395,-16.92024],[-68.09298,-16.82115],[-68.082,-16.80809],[-68.09027,-16.77625],[-68.0636,-16.73906],[-68.0911,-16.73552],[-68.11048,-16.71115],[-68.11263,-16.67892],[-68.14527,-16.64948],[-68.12874,-16.62156],[-68.18548,-16.57448],[-68.14985,-16.52302],[-68.17131,-16.49115],[-68.162,-16.4067],[-68.13784,-16.35004],[-68.10562,-16.33309],[-68.10214,-16.30365],[-68.15006,-16.28281],[-68.18062,-16.2242],[-68.21506,-16.22281],[-68.20798,-16.19927],[-68.21746,-16.17344],[-68.242,-16.17142],[-68.24562,-16.11948],[-68.28395,-16.12191],[-68.29798,-16.09406],[-68.29485,-16.05167],[-68.33867,-16.04309],[-68.36173,-15.9949],[-68.40895,-15.96524],[-68.41312,-15.93226],[-68.45284,-15.92809],[-68.47832,-15.8967],[-68.46828,-15.87112],[-68.48006,-15.86365],[-68.54208,-15.854],[-68.557,-15.8792],[-68.5495,-15.91691],[-68.57298,-15.93365],[-68.60034,-15.93059],[-68.67506,-15.87198],[-68.78548,-15.86615],[-68.80006,-15.81795],[-68.8821,-15.76063],[-68.91381,-15.77365],[-68.95223,-15.73765],[-68.97312,-15.7542],[-69.02006,-15.7274],[-69.02306,-15.62965],[-69.03589,-15.56781],[-69.05034,-15.55837],[-69.04145,-15.52254],[-69.09277,-15.49052],[-69.07631,-15.41656],[-69.05228,-15.39392],[-69.05923,-15.3717],[-69.01006,-15.29865],[-69.04145,-15.27476],[-69.05735,-15.22323],[-69.07714,-15.22906],[-69.09756,-15.2099],[-69.11889,-15.14798],[-69.14839,-15.13802],[-69.13534,-15.09337],[-69.09792,-15.08067],[-69.09728,-15.04642],[-69.05131,-15.00892],[-69.08112,-14.96809],[-69.11645,-14.97274],[-69.13798,-14.93448],[-69.097,-14.89087],[-69.1786,-14.81198],[-69.18728,-14.76566],[-69.16367,-14.77337],[-69.15574,-14.76141],[-69.17207,-14.74316],[-69.16534,-14.72281],[-69.22878,-14.65531],[-69.2543,-14.67559],[-69.28423,-14.64115],[-69.34867,-14.66059],[-69.34857,-14.62284],[-69.37298,-14.6099],[-69.44173,-14.6124],[-69.44895,-14.58504],[-69.5245,-14.60226],[-69.55673,-14.55531],[-69.58506,-14.55115],[-69.58756,-14.52573],[-69.56652,-14.51802],[-69.58978,-14.4842],[-69.62916,-14.50017],[-69.63673,-14.47073],[-69.68728,-14.4217],[-69.71756,-14.42281],[-69.72943,-14.34635],[-69.78325,-14.31129],[-69.78645,-14.27476],[-69.85149,-14.26299],[-69.87381,-14.28781],[-69.90339,-14.27177],[-69.93006,-14.2799],[-70.04818,-14.18094],[-70.07256,-14.19156],[-70.09798,-14.17948],[-70.11895,-14.1267],[-70.20812,-14.05642],[-70.2318,-14.09587],[-70.257,-14.08816],[-70.30499,-14.12809],[-70.30867,-14.16191],[-70.35798,-14.16941],[-70.38673,-14.19615],[-70.42339,-14.17565],[-70.48339,-14.2224],[-70.54006,-14.1899],[-70.55506,-14.1524],[-70.61923,-14.15906],[-70.65298,-14.12031],[-70.69284,-14.12309],[-70.71332,-14.0774],[-70.78773,-14.08081],[-70.82089,-14.14115],[-70.88631,-14.17281],[-70.89923,-14.22781],[-70.88131,-14.26177],[-70.91339,-14.30365],[-70.91235,-14.34281],[-70.93089,-14.33906],[-70.98617,-14.37892],[-70.96256,-14.44448],[-70.98589,-14.45198],[-70.98652,-14.49865],[-70.99857,-14.50186],[-70.9661,-14.56781],[-71.11827,-14.64809],[-71.05673,-14.75198],[-71.02728,-14.75976],[-71.01173,-14.73865],[-70.97464,-14.76573],[-70.97839,-14.8249],[-70.99525,-14.83446],[-70.98464,-14.94281],[-71.00423,-14.98031],[-70.97978,-15.05691],[-70.94923,-15.07198],[-70.97964,-15.10865],[-70.96756,-15.22948],[-70.99631,-15.2474],[-71.01485,-15.23115],[-71.03812,-15.23642],[-71.05673,-15.2049],[-71.09228,-15.20392],[-71.13339,-15.22615],[-71.16978,-15.27559],[-71.19173,-15.27427],[-71.20131,-15.24504],[-71.15978,-15.20809],[-71.17749,-15.16226],[-71.14339,-15.12031],[-71.197,-15.08809],[-71.20902,-15.05177],[-71.23089,-15.06656],[-71.26867,-15.06254],[-71.27145,-15.08392],[-71.32173,-15.12344],[-71.33006,-15.09906],[-71.37145,-15.08024],[-71.40732,-15.03662],[-71.4545,-15.04254],[-71.52485,-15.07698],[-71.55631,-15.15948],[-71.54388,-15.2058],[-71.56006,-15.26469],[-71.54645,-15.28073],[-71.59145,-15.39226],[-71.60798,-15.4099],[-71.65562,-15.41705],[-71.67943,-15.4601],[-71.67937,-15.51691],[-71.71839,-15.51073],[-71.76089,-15.52531],[-71.78485,-15.50594],[-71.78899,-15.46534],[-71.80923,-15.45323],[-71.86777,-15.4601],[-71.86714,-15.36365],[-71.85089,-15.35281],[-71.86631,-15.30885],[-71.89617,-15.29809],[-71.91562,-15.24504],[-71.94631,-15.24531],[-71.94473,-15.22715],[-71.92339,-15.22948],[-71.89367,-15.14837],[-71.86978,-15.12205],[-71.83423,-15.11656],[-71.84089,-15.08448],[-71.94423,-15.11094],[-71.98256,-15.0774],[-72.01173,-15.09198],[-72.03631,-15.08365],[-72.05145,-15.03552],[-72.14256,-14.99635],[-72.16298,-14.96615],[-72.20756,-14.9749],[-72.24923,-14.95156],[-72.28131,-14.96865],[-72.31871,-14.93229],[-72.29943,-14.89823],[-72.3145,-14.83337],[-72.39673,-14.82406],[-72.43818,-14.79031],[-72.46867,-14.78642],[-72.48666,-14.74337],[-72.48617,-14.71254],[-72.46048,-14.68083],[-72.47506,-14.65906],[-72.54006,-14.67031],[-72.59214,-14.71073],[-72.60645,-14.6767],[-72.64652,-14.66649],[-72.69068,-14.6876],[-72.72256,-14.67615],[-72.72639,-14.64543],[-72.77089,-14.6649],[-72.78958,-14.65067],[-72.80013,-14.68337],[-72.81843,-14.67986],[-72.84673,-14.7599],[-72.8668,-14.70809],[-72.94464,-14.68865],[-72.97256,-14.65427],[-72.99839,-14.65823],[-73.01437,-14.6299],[-73.03193,-14.62781],[-73.06062,-14.66476],[-73.09798,-14.65115],[-73.10312,-14.69274],[-73.15339,-14.6774],[-73.18867,-14.70205],[-73.26152,-14.71135],[-73.28402,-14.7401],[-73.35631,-14.69531],[-73.3578,-14.61091],[-73.41548,-14.61906],[-73.47256,-14.59948],[-73.47895,-14.57587],[-73.51193,-14.56469],[-73.50381,-14.5524],[-73.53318,-14.50656],[-73.58617,-14.5292],[-73.60978,-14.60309],[-73.667,-14.61198],[-73.71506,-14.6601],[-73.73464,-14.72615],[-73.76367,-14.72059],[-73.77402,-14.69135],[-73.8095,-14.70254],[-73.81562,-14.73254],[-73.83673,-14.71323],[-73.82214,-14.67781],[-73.84589,-14.62615],[-73.88728,-14.62538],[-73.88131,-14.65948],[-73.89298,-14.6724],[-73.92839,-14.63198],[-73.92485,-14.5901],[-73.94956,-14.56981],[-73.98395,-14.57858],[-74.01265,-14.52254],[-74.12228,-14.53392],[-74.17131,-14.46726],[-74.21034,-14.45642],[-74.20839,-14.42406],[-74.16733,-14.39476],[-74.19256,-14.34385],[-74.17548,-14.31823],[-74.18426,-14.29632],[-74.21156,-14.28581],[-74.22356,-14.30731],[-74.2811,-14.26615],[-74.3195,-14.27254],[-74.32839,-14.28802],[-74.30145,-14.31524],[-74.31464,-14.3474],[-74.33027,-14.34781],[-74.38089,-14.41406],[-74.44006,-14.38781],[-74.46596,-14.40059],[-74.47647,-14.37865],[-74.49652,-14.38844],[-74.5195,-14.37392],[-74.57446,-14.25579],[-74.63298,-14.26323],[-74.65256,-14.23198],[-74.68714,-14.25615],[-74.67923,-14.23615],[-74.71464,-14.18948],[-74.72867,-14.19142],[-74.77235,-14.09198],[-74.76756,-14.04531],[-74.78534,-13.99142],[-74.76985,-13.97031],[-74.79214,-13.92948],[-74.75964,-13.8324],[-74.78506,-13.76615],[-74.83395,-13.73656],[-74.87214,-13.75656],[-74.93423,-13.74073],[-74.97048,-13.75281],[-74.99534,-13.73726],[-75.0143,-13.68976],[-75.04853,-13.68122],[-75.07089,-13.65156],[-75.09173,-13.55781],[-75.03381,-13.54531],[-75.10027,-13.4726],[-75.0745,-13.45726],[-75.06902,-13.39781],[-75.09756,-13.4074],[-75.13985,-13.39031],[-75.11964,-13.35115],[-75.11637,-13.32007],[-75.13478,-13.30392],[-75.12289,-13.28831],[-75.15589,-13.24781],[-75.19728,-13.25476],[-75.222,-13.23892],[-75.22159,-13.17205],[-75.13679,-13.16917],[-75.1111,-13.11781],[-75.07006,-13.12073],[-75.04173,-13.0892],[-75.14006,-13.01115],[-75.2372,-12.88684],[-75.25534,-12.8817],[-75.28173,-12.9174],[-75.30589,-12.90333],[-75.33673,-12.93573],[-75.35867,-12.86372],[-75.38256,-12.84573],[-75.41589,-12.86323],[-75.44589,-12.83906],[-75.48443,-12.84115],[-75.49506,-12.79385],[-75.54339,-12.76573],[-75.49645,-12.71976],[-75.51464,-12.69865],[-75.50284,-12.6367],[-75.5245,-12.61955],[-75.57923,-12.63844],[-75.57145,-12.58309],[-75.59089,-12.55948],[-75.61656,-12.57815],[-75.62048,-12.56531],[-75.61478,-12.48754],[-75.6445,-12.39837],[-75.63623,-12.36048],[-75.59812,-12.33809],[-75.58673,-12.29948],[-75.66568,-12.19365],[-75.6293,-12.12892],[-75.67409,-12.08545],[-75.71756,-12.09365],[-75.73506,-12.05427],[-75.7695,-12.05809],[-75.81735,-12.01344],[-75.83589,-12.02448],[-75.84228,-12.00754],[-75.91964,-11.98531],[-76.01284,-11.98642],[-76.05284,-11.94809],[-76.05034,-11.90115],[-76.08923,-11.86344],[-76.11799,-11.80389],[-76.19923,-11.73781],[-76.20714,-11.69865],[-76.19103,-11.67774],[-76.20409,-11.65955],[-76.18902,-11.64719],[-76.19693,-11.62115],[-76.1795,-11.61476],[-76.20589,-11.57427],[-76.22779,-11.55392],[-76.23812,-11.5692],[-76.267,-11.56754],[-76.26735,-11.59052],[-76.28374,-11.59483],[-76.30284,-11.58587],[-76.3145,-11.54122],[-76.35006,-11.54198],[-76.34943,-11.52115],[-76.37673,-11.50115],[-76.37673,-11.44781],[-76.39818,-11.43844],[-76.43062,-11.3342],[-76.45784,-11.32976],[-76.47798,-11.29073],[-76.46018,-11.2671],[-76.48881,-11.24948],[-76.47964,-11.21615],[-76.50631,-11.16837],[-76.50756,-11.13615],[-76.48443,-11.12698],[-76.49139,-11.08859],[-76.57881,-10.99448],[-76.56464,-10.96365],[-76.58124,-10.8626],[-76.59756,-10.82115],[-76.62673,-10.80031],[-76.62881,-10.76365],[-76.67006,-10.67948],[-76.65534,-10.64615],[-76.68173,-10.59156],[-76.70312,-10.5892],[-76.72978,-10.4742],[-76.79999,-10.43837],[-76.80589,-10.39281],[-76.83256,-10.39281],[-76.84106,-10.36831],[-76.8645,-10.37476],[-76.87978,-10.30705],[-76.89339,-10.30615],[-76.90562,-10.27504],[-76.91556,-10.11965],[-76.93714,-10.09406],[-76.9611,-10.10552],[-76.98082,-10.03156],[-77.00645,-10.01274],[-77.06312,-9.8692],[-77.11589,-9.83406],[-77.20527,-9.83115],[-77.24145,-9.79941],[-77.22895,-9.70698],[-77.24867,-9.70392],[-77.26812,-9.63504],[-77.30867,-9.57809],[-77.30131,-9.55531],[-77.32631,-9.4724],[-77.30117,-9.44004],[-77.33048,-9.38698],[-77.31839,-9.3224],[-77.40895,-9.27309],[-77.48006,-9.26969],[-77.48006,-9.25517],[-77.512,-9.24892],[-77.53131,-9.17281],[-77.49443,-9.10708],[-77.53089,-9.08323],[-77.57416,-9.08601],[-77.59006,-9.05365],[-77.58048,-9.00281],[-77.6145,-8.99392],[-77.62048,-8.97448],[-77.57428,-8.9001],[-77.60673,-8.8724],[-77.58145,-8.81892],[-77.58122,-8.77198],[-77.72173,-8.65656],[-77.69173,-8.55615],[-77.71423,-8.54156],[-77.70339,-8.51031],[-77.71728,-8.49004],[-77.772,-8.43976],[-77.75289,-8.41615],[-77.78464,-8.37948],[-77.74256,-8.3617],[-77.76298,-8.3049],[-77.72548,-8.25865],[-77.75214,-8.17948],[-77.77339,-8.16031],[-77.75985,-8.12948],[-77.73964,-8.12219],[-77.74589,-8.07948],[-77.78839,-8.08156],[-77.81173,-8.06656],[-77.84756,-8.08156],[-77.86756,-8.05656],[-77.95582,-8.05642],[-77.98562,-7.98226],[-78.05395,-8.00976],[-78.07312,-7.99142],[-78.08839,-8.0099],[-78.1118,-7.98392],[-78.14214,-7.98781],[-78.16312,-7.97087],[-78.25089,-7.97031],[-78.26089,-7.89281],[-78.24964,-7.85448],[-78.27381,-7.7849],[-78.26125,-7.75412],[-78.28166,-7.7467],[-78.28895,-7.7067],[-78.332,-7.69726],[-78.38173,-7.6301],[-78.37784,-7.5942],[-78.35818,-7.57469],[-78.36048,-7.53031],[-78.32231,-7.50385],[-78.35277,-7.47698],[-78.34312,-7.40142],[-78.39256,-7.37552],[-78.34867,-7.33892],[-78.382,-7.30622],[-78.42756,-7.29115],[-78.42506,-7.2776],[-78.45485,-7.27302],[-78.45939,-7.24581],[-78.53798,-7.21865],[-78.5668,-7.1817],[-78.59423,-7.17781],[-78.62714,-7.13115],[-78.59381,-7.05865],[-78.6045,-7.05087],[-78.54923,-6.9926],[-78.50423,-6.97717],[-78.53339,-6.93115],[-78.60481,-6.89402],[-78.62673,-6.79281],[-78.68798,-6.74948],[-78.6545,-6.72441],[-78.66539,-6.70215],[-78.65131,-6.69031],[-78.65589,-6.66906],[-78.75714,-6.60865],[-78.81975,-6.52677],[-78.91582,-6.52087],[-78.94756,-6.45156],[-79.01256,-6.4424],[-79.06284,-6.45309],[-79.09034,-6.40087],[-79.18117,-6.40309],[-79.1995,-6.3299],[-79.22228,-6.31774],[-79.22298,-6.21531],[-79.25332,-6.21837],[-79.2761,-6.15524],[-79.31381,-6.13906],[-79.37318,-6.17531],[-79.40073,-6.17315],[-79.42784,-6.14892],[-79.41579,-6.1026],[-79.43464,-6.08365],[-79.41298,-6.02615],[-79.47881,-5.98198],[-79.46812,-5.95788],[-79.44339,-5.95531],[-79.43895,-5.92254],[-79.51673,-5.83719],[-79.51562,-5.81254],[-79.56777,-5.79865],[-79.58089,-5.75531],[-79.61506,-5.72698],[-79.61332,-5.70726],[-79.58263,-5.70254],[-79.5745,-5.6717],[-79.53933,-5.65552],[-79.54039,-5.59298],[-79.52062,-5.56642],[-79.49318,-5.56948],[-79.49193,-5.51844],[-79.45485,-5.5076],[-79.47589,-5.46115],[-79.5186,-5.43115],[-79.51131,-5.39156],[-79.54298,-5.37615],[-79.54173,-5.32302],[-79.57193,-5.2801],[-79.5486,-5.11865],[-79.49339,-5.10448],[-79.46548,-4.98948],[-79.40406,-4.94531],[-79.41617,-4.88254],[-79.39881,-4.84115],[-79.40239,-4.82665],[-79.41839,-4.82948],[-79.417,-4.78872],[-79.43895,-4.77858],[-79.43589,-4.75198],[-79.41298,-4.71781],[-79.39923,-4.72031],[-79.39284,-4.6767],[-79.33339,-4.60615],[-79.32617,-4.5092],[-79.27964,-4.47323],[-79.20898,-4.51023],[-79.19728,-4.48205],[-79.16714,-4.47504],[-79.11039,-4.40415],[-79.11964,-4.30781],[-79.10543,-4.28665],[-79.10714,-4.18615],[-79.15756,-4.15323],[-79.16152,-4.1149],[-79.20763,-4.08059],[-79.22506,-4.08385],[-79.2686,-3.98802],[-79.26089,-3.87677],[-79.31131,-3.83448],[-79.34714,-3.73698],[-79.2611,-3.67281],[-79.23152,-3.68031],[-79.21867,-3.71142],[-79.1948,-3.72208],[-79.16152,-3.71552],[-79.15728,-3.66254],[-79.10478,-3.64726],[-79.10839,-3.63031],[-79.05818,-3.60948],[-79.04645,-3.55122],[-79.06714,-3.51198],[-79.04298,-3.47531],[-79.06284,-3.43406],[-79.05256,-3.40365],[-79.01256,-3.36698],[-78.94256,-3.34281],[-78.95298,-3.3024],[-78.92339,-3.26976],[-78.97496,-3.19792],[-79.02673,-3.18615],[-79.04728,-3.14587],[-79.08464,-3.13781],[-79.10589,-3.1076],[-79.16589,-3.1101],[-79.23152,-3.05615],[-79.26214,-3.04917],[-79.27562,-3.07142],[-79.30298,-3.07031],[-79.33228,-3.0442],[-79.35277,-3.04531],[-79.35923,-3.00406],[-79.3393,-2.9942],[-79.32714,-2.94698],[-79.28089,-2.8949],[-79.28534,-2.8492],[-79.26131,-2.85031],[-79.22964,-2.8099],[-79.24589,-2.75948],[-79.1461,-2.7324],[-79.14339,-2.69615],[-79.11214,-2.68281],[-79.13756,-2.65698],[-79.09666,-2.62559],[-79.05673,-2.60531],[-79.03117,-2.63476],[-79.01006,-2.63573],[-78.98485,-2.60094],[-78.96589,-2.6149],[-78.9295,-2.60892],[-78.85006,-2.67531],[-78.84631,-2.63365],[-78.80589,-2.65156],[-78.77652,-2.63656],[-78.78381,-2.61698],[-78.74548,-2.50115],[-78.74645,-2.4442],[-78.74818,-2.43302],[-78.78339,-2.43531],[-78.79548,-2.38031],[-78.75082,-2.32337],[-78.71693,-2.31698],[-78.71006,-2.3349],[-78.66407,-2.34717],[-78.61839,-2.30247],[-78.62923,-2.26781],[-78.6645,-2.24476],[-78.68173,-2.20948],[-78.62711,-2.11948],[-78.63068,-2.09781],[-78.64707,-2.08031],[-78.74999,-2.06004],[-78.76923,-2.05052],[-78.77137,-2.02984],[-78.82839,-2.0199],[-78.84693,-1.99552],[-78.827,-1.98774],[-78.81423,-1.94698],[-78.85089,-1.93885],[-78.85548,-1.92323],[-78.84964,-1.85865],[-78.83273,-1.83881],[-78.84631,-1.80781],[-78.83423,-1.75504],[-78.86631,-1.70865],[-78.85923,-1.67406],[-78.83752,-1.66048],[-78.83714,-1.60073],[-78.85089,-1.58781],[-78.84596,-1.55892],[-78.87631,-1.52365],[-78.83978,-1.46462],[-78.87131,-1.46198],[-78.90617,-1.43392],[-78.93798,-1.36115],[-78.88728,-1.26809],[-78.8911,-1.22031],[-78.8586,-1.17427],[-78.84548,-1.1824],[-78.78941,-1.14278],[-78.84471,-1.08712],[-78.83117,-1.02254],[-78.80437,-1.01738],[-78.78648,-0.98869],[-78.81131,-0.95615],[-78.79523,-0.92548],[-78.81548,-0.89531],[-78.80839,-0.81656],[-78.77652,-0.79052],[-78.767,-0.73504],[-78.74765,-0.73045],[-78.71464,-0.66031],[-78.59145,-0.65358],[-78.56131,-0.60615],[-78.51214,-0.59448],[-78.43113,-0.68472],[-78.32954,-0.65858],[-78.32235,-0.57448],[-78.28863,-0.58055],[-78.26714,-0.53448],[-78.27173,-0.50948],[-78.23473,-0.45181],[-78.25395,-0.40538],[-78.1915,-0.32244],[-78.18749,-0.19642],[-78.14089,-0.16698],[-78.08386,-0.18966],[-78.04923,-0.14531],[-78.01395,-0.13941],[-77.99055,-0.11017],[-78.00298,-0.06948],[-77.98895,-0.05774],[-77.9886,0.0249],[-78.00548,0.04552],[-77.97589,0.09552],[-77.97131,0.14385],[-77.92395,0.18191],[-77.92506,0.19802],[-77.87089,0.20802],[-77.82961,0.27337],[-77.84506,0.27948],[-77.84916,0.30691],[-77.79763,0.3683],[-77.80706,0.42702],[-77.72784,0.53246],[-77.67812,0.56191],[-77.66346,0.59524],[-77.69499,0.61246],[-77.69423,0.62885],[-77.6486,0.68594],[-77.67145,0.70309],[-77.67214,0.7351],[-77.56423,0.72927],[-77.49923,0.76015],[-77.47756,0.79135],[-77.44568,0.7974],[-77.42673,0.78469],[-77.40173,0.79802],[-77.38395,0.8183],[-77.39798,0.87219],[-77.37454,0.87885],[-77.35395,0.93628],[-77.3277,0.94059],[-77.32214,0.97927],[-77.24839,0.9926],[-77.21173,1.03469],[-77.19131,1.09552],[-77.19798,1.14885],[-77.18117,1.17663],[-77.12089,1.21469],[-77.11214,1.19135],[-77.06714,1.18552],[-77.02332,1.22441],[-76.97756,1.23385],[-76.97423,1.29219],[-76.95985,1.27385],[-76.93173,1.28677],[-76.90542,1.32088],[-76.93131,1.38552],[-76.91708,1.42921],[-76.92943,1.4999],[-76.88756,1.5226],[-76.85839,1.52052],[-76.85839,1.56594],[-76.83402,1.60635],[-76.85527,1.63906],[-76.84714,1.66885],[-76.80728,1.69524],[-76.76589,1.75302],[-76.7695,1.77496],[-76.73423,1.7801],[-76.74173,1.81531],[-76.70756,1.96177],[-76.62395,1.9733],[-76.61839,1.92635],[-76.5811,1.89781],[-76.59034,1.86802],[-76.52808,1.82406],[-76.50728,1.8333],[-76.43089,1.78802],[-76.42089,1.71969],[-76.37145,1.7433],[-76.37923,1.66219],[-76.32537,1.66422],[-76.30756,1.68969],[-76.26506,1.67094],[-76.24145,1.68246],[-76.21145,1.64246],[-76.1995,1.57496],[-76.16582,1.58913],[-76.12034,1.55246],[-76.07506,1.58469],[-76.02367,1.59059],[-75.98089,1.62469],[-75.97923,1.65823],[-75.95145,1.66406],[-75.90673,1.71594],[-75.84256,1.72344],[-75.83006,1.74677],[-75.73645,1.78274],[-75.73173,1.82219],[-75.70645,1.84191],[-75.70277,1.86635],[-75.64117,1.91358],[-75.64089,1.9574],[-75.58714,2.01187],[-75.53423,2.11823],[-75.44323,2.14569],[-75.42589,2.19496],[-75.43881,2.22302],[-75.4093,2.24621],[-75.39478,2.30413],[-75.37256,2.3249],[-75.34943,2.32295],[-75.32749,2.36663],[-75.30728,2.36358],[-75.27839,2.42635],[-75.23006,2.48198],[-75.22673,2.51198],[-75.1795,2.50969],[-75.18006,2.53406],[-75.13381,2.60455],[-75.15673,2.64802],[-75.13298,2.69052],[-75.15527,2.70615],[-75.14562,2.72295],[-75.07096,2.73996],[-74.98832,2.85941],[-74.91145,2.93108],[-74.90423,2.9601],[-74.86943,2.97406],[-74.8186,3.05052],[-74.78784,3.05976],[-74.79006,3.07552],[-74.71173,3.17115],[-74.67214,3.18552],[-74.667,3.22996],[-74.6161,3.28802],[-74.61617,3.32552],[-74.63964,3.36774],[-74.60548,3.41302],[-74.61256,3.46302],[-74.63048,3.47094],[-74.62034,3.48663],[-74.58117,3.52913],[-74.5643,3.52496],[-74.52291,3.57844],[-74.50339,3.64719],[-74.42478,3.70691],[-74.41789,3.73702],[-74.38728,3.75274],[-74.3895,3.77163],[-74.32714,3.82719],[-74.29515,3.81834],[-74.31666,3.88108],[-74.29367,3.88559],[-74.27367,3.92496],[-74.25645,3.92774],[-74.21708,4.01088],[-74.25298,4.05969],[-74.24367,4.19663],[-74.20687,4.24142],[-74.20423,4.29135],[-74.16756,4.28385],[-74.11339,4.3126],[-74.09464,4.36135],[-74.11339,4.38552],[-74.10839,4.44344],[-74.04145,4.51191],[-74.02839,4.55969],[-74.00859,4.56039],[-73.98714,4.63052],[-73.92367,4.7058],[-73.90631,4.71594],[-73.89138,4.70427],[-73.86784,4.74746],[-73.82978,4.75663],[-73.822,4.8208],[-73.76089,4.89031],[-73.75082,4.93441],[-73.71485,4.94969],[-73.68193,4.99052],[-73.66784,5.10496],[-73.5789,5.15068],[-73.51729,5.22653],[-73.59367,5.29663],[-73.60006,5.3776],[-73.57889,5.39546],[-73.58534,5.40663],[-73.49312,5.45358],[-73.42895,5.52962],[-73.39173,5.50635],[-73.39339,5.47552],[-73.36728,5.48726],[-73.31339,5.47517],[-73.31506,5.49469],[-73.28464,5.51635],[-73.26289,5.46069],[-73.2186,5.44615],[-73.14856,5.48085],[-73.12419,5.45785],[-73.10631,5.4701],[-73.03356,5.46585],[-72.99589,5.43094],[-72.98423,5.46719],[-72.99332,5.51858],[-72.92978,5.58524],[-72.92256,5.61969],[-72.89756,5.6176],[-72.87777,5.64073],[-72.83839,5.65135],[-72.77353,5.65094],[-72.74228,5.67358],[-72.70985,5.72498],[-72.72832,5.75024],[-72.68173,5.78635],[-72.71423,5.79635],[-72.68631,5.82302],[-72.69923,5.84094],[-72.65367,5.88309],[-72.64978,5.90712],[-72.60089,5.91663],[-72.57506,5.93844],[-72.53006,6.0526],[-72.50881,6.05219],[-72.42339,6.14802],[-72.38735,6.26031],[-72.39534,6.27496],[-72.35173,6.3451],[-72.31756,6.33427],[-72.31589,6.35802],[-72.28027,6.38277],[-72.27381,6.43913],[-72.29798,6.4751],[-72.29919,6.51239],[-72.34423,6.52552],[-72.3793,6.60108],[-72.4386,6.63219],[-72.44985,6.65385],[-72.48506,6.65635],[-72.49256,6.72135],[-72.54777,6.74177],[-72.58506,6.70594],[-72.6261,6.71031],[-72.60798,6.75219],[-72.62798,6.81927],[-72.61789,6.84019],[-72.65464,6.87885],[-72.68006,6.95646],[-72.70166,6.95691],[-72.72555,6.99205],[-72.74062,6.98559],[-72.79062,7.03802],[-72.87756,7.05552],[-72.88596,7.07858],[-72.93839,7.09844],[-72.94923,7.0901],[-72.95812,7.11274],[-72.93612,7.1402],[-72.94082,7.16024],[-72.89923,7.2076],[-72.89839,7.24719],[-72.82673,7.30344],[-72.83798,7.27469],[-72.81089,7.25094],[-72.74235,7.25115],[-72.70513,7.29663],[-72.69506,7.34094],[-72.66156,7.31769],[-72.62193,7.35302],[-72.58006,7.34052],[-72.57506,7.41698],[-72.59714,7.45427],[-72.55089,7.46365],[-72.53568,7.49573],[-72.49273,7.46252],[-72.452,7.39941],[-72.39156,7.41019],[-72.39548,7.47719],[-72.3795,7.52358],[-72.39193,7.56865],[-72.43332,7.60163],[-72.43964,7.63094],[-72.40964,7.66302],[-72.41027,7.73302],[-72.36978,7.76358],[-72.35027,7.80302],[-72.33193,7.79094],[-72.31548,7.80448],[-72.3245,7.81996],[-72.30693,7.87802],[-72.24089,7.86844],[-72.19461,7.8817],[-72.18367,7.91746],[-72.1436,7.93448],[-72.13256,7.97156],[-72.08145,7.98746],[-72.07131,7.9501],[-72.02867,8.01309],[-71.98798,8.00656],[-71.95839,8.03177],[-71.92812,8.03246],[-71.90256,8.14677],[-71.8761,8.17823],[-71.8247,8.15671],[-71.78867,8.22913],[-71.76589,8.22677],[-71.722,8.2608],[-71.71034,8.25219],[-71.67645,8.30024],[-71.58173,8.26427],[-71.56923,8.27844],[-71.53298,8.27385],[-71.50673,8.23802],[-71.48832,8.26524],[-71.45235,8.26594],[-71.41798,8.3101],[-71.3665,8.2783],[-71.34881,8.28885],[-71.34589,8.31719],[-71.31256,8.31955],[-71.26789,8.35027],[-71.21506,8.3601],[-71.17923,8.32677],[-71.16589,8.35823],[-71.12173,8.38677],[-71.08506,8.36802],[-71.03784,8.40358],[-71.03999,8.43691],[-70.99971,8.44764],[-70.98117,8.50469],[-70.99839,8.58927],[-70.96798,8.59969],[-70.9436,8.63219],[-70.91568,8.63052],[-70.89489,8.66835],[-70.86714,8.67469],[-70.86423,8.71927],[-70.81676,8.72862],[-70.80131,8.75052],[-70.82673,8.7751],[-70.8295,8.8458],[-70.77117,8.86559],[-70.71284,8.94746],[-70.5595,9.04142],[-70.55089,9.0951],[-70.45381,9.12052],[-70.45117,9.17496],[-70.38562,9.21996],[-70.37395,9.26045],[-70.34318,9.28219],[-70.2961,9.36885],[-70.26437,9.38066],[-70.25534,9.40913],[-70.21296,9.41195],[-70.187,9.45913],[-70.11506,9.52677],[-70.07827,9.49013],[-70.02189,9.47985],[-69.95089,9.55427],[-69.91506,9.6201],[-69.84298,9.61344],[-69.85784,9.57524],[-69.82862,9.56663],[-69.77478,9.58774],[-69.75784,9.62746],[-69.67506,9.68969],[-69.60895,9.69802],[-69.59923,9.75469],[-69.55534,9.79309],[-69.51617,9.89108],[-69.49006,9.90802],[-69.51631,9.94552],[-69.47964,9.97635],[-69.49423,10.01802],[-69.46381,10.04969],[-69.46728,10.07246],[-69.49673,10.08052],[-69.51173,10.1376],[-69.46339,10.17094],[-69.44652,10.16677],[-69.37423,10.24927],[-69.34562,10.30795],[-69.31006,10.33115],[-69.18089,10.36094],[-69.16478,10.28976],[-69.14027,10.28219],[-69.08631,10.29885],[-69.03839,10.27052],[-69.03242,10.24052],[-69.00985,10.22469],[-69.02839,10.1551],[-68.94589,10.07385],[-68.88089,10.09094],[-68.83731,10.06715],[-68.69756,10.11969],[-68.69173,10.09719],[-68.61656,10.08298],[-68.54687,10.10656],[-68.57339,10.1576],[-68.56997,10.20645],[-68.47589,10.22844],[-68.45582,10.19996],[-68.43589,10.19885],[-68.33034,10.26996],[-68.23464,10.26115],[-68.17763,10.32413],[-68.15506,10.31594],[-68.14235,10.25844],[-68.11714,10.24156],[-68.06895,10.27108],[-68.04818,10.3349],[-68.00381,10.33969],[-67.96673,10.33469],[-67.99214,10.27969],[-67.98048,10.21052],[-67.9936,10.17802],[-67.95832,10.09566],[-67.98548,10.03469],[-67.98131,9.9976],[-67.94006,10.0151],[-67.91625,9.99335],[-67.88763,10.00274],[-67.85956,9.97669],[-67.83777,9.99219],[-67.7436,9.98774],[-67.71589,10.02594],[-67.65777,10.0249],[-67.57923,9.98969],[-67.53423,9.99677],[-67.47812,10.02524],[-67.4695,10.07996],[-67.35728,10.16545],[-67.2811,10.19073],[-67.20839,10.17316],[-67.15985,10.18031],[-67.10562,10.10496],[-67.11235,10.08906],[-67.05589,10.05663],[-66.96756,10.06969],[-66.9595,10.03941],[-66.93506,10.03969],[-66.92825,10.01719],[-66.89298,10.02052],[-66.87867,9.99858],[-66.82923,10.02719],[-66.77693,10.01615],[-66.74089,9.98844],[-66.64331,9.9689],[-66.58256,9.9826],[-66.54673,9.96621],[-66.49006,9.99344],[-66.48235,10.02115],[-66.44506,10.01427],[-66.43173,10.03135],[-66.38284,10.04108],[-66.34402,10.02552],[-66.3364,9.99895],[-66.31589,10.00302],[-66.28506,9.9776],[-66.24378,9.99041],[-66.20656,9.95185],[-66.162,9.9458],[-66.16534,9.92524],[-66.13339,9.89219],[-66.11964,9.83302],[-66.13006,9.75802],[-66.17867,9.7283],[-66.21373,9.64702],[-66.18173,9.64677],[-66.16173,9.6201],[-66.19145,9.52274],[-66.12839,9.38969],[-66.13742,9.35205],[-66.07089,9.33469],[-66.06895,9.31024],[-66.04402,9.2974],[-66.01284,9.23524],[-65.92506,9.21385],[-65.91089,9.19594],[-65.93784,9.14719],[-65.90881,9.04552],[-65.92589,8.97385],[-65.90152,8.96135],[-65.90256,8.93927],[-65.88089,8.93635],[-65.8895,8.91858],[-65.85867,8.88524],[-65.79923,8.84844],[-65.81839,8.81073],[-65.81301,8.77941],[-65.74339,8.75885],[-65.712,8.73108],[-65.68846,8.74996],[-65.68423,8.78094],[-65.65464,8.79594],[-65.59228,8.7808],[-65.57839,8.74031],[-65.48423,8.7625],[-65.442,8.79274],[-65.28214,8.74344],[-65.21617,8.80413],[-65.17506,8.81469],[-65.14256,8.80344],[-65.09381,8.84594],[-65.0677,8.82969],[-65.03846,8.83941],[-64.96589,8.8208],[-64.91214,8.83427],[-64.86923,8.82677],[-64.86728,8.8051],[-64.83173,8.78052],[-64.75339,8.83469],[-64.70717,8.84591],[-64.69089,8.91385],[-64.53923,8.9326],[-64.46223,8.90185],[-64.40106,8.90852],[-64.37416,8.94691],[-64.32089,8.96677],[-64.31784,8.99427],[-64.29131,9.01302],[-64.25381,9.0226],[-64.22006,9.00802],[-64.10173,9.10469],[-64.05256,9.09469],[-64.03617,9.13913],[-63.96277,9.14469],[-63.96402,9.15969],[-63.92089,9.17885],[-63.87228,9.26128],[-63.80089,9.30115],[-63.76923,9.36531],[-63.68381,9.3851],[-63.59478,9.38524],[-63.48464,9.4126],[-63.40728,9.39108],[-63.33367,9.41059],[-63.27339,9.44969],[-63.19367,9.4633],[-63.17589,9.44969],[-63.08756,9.48969],[-62.96339,9.41156],[-62.86013,9.40038],[-62.77214,9.3476],[-62.73312,9.34858],[-62.70881,9.38219],[-62.68048,9.38115],[-62.68923,9.40073],[-62.67062,9.40608],[-62.6693,9.42524],[-62.69006,9.45635],[-62.63089,9.44844],[-62.58206,9.52169],[-62.55589,9.50427],[-62.53006,9.51885],[-62.50356,9.50685],[-62.46673,9.52802],[-62.46456,9.56752],[-62.44339,9.55885],[-62.40034,9.6258],[-62.38806,9.62152],[-62.38923,9.72802],[-62.42298,9.74302],[-62.4095,9.80163],[-62.37756,9.80219],[-62.36048,9.77052],[-62.3718,9.75809],[-62.31478,9.75524],[-62.32153,9.83132],[-62.33847,9.82549],[-62.35417,9.85292],[-62.34958,9.92542],[-62.33292,9.91729],[-62.33951,9.94264],[-62.31264,9.94903],[-62.30875,9.89958],[-62.30014,9.93535],[-62.27264,9.95069],[-62.26123,9.89931],[-62.24613,9.88147],[-62.26569,9.96153],[-62.20083,10.01958],[-62.03583,9.96458],[-61.91542,9.87208],[-61.86559,9.80825],[-61.83188,9.79896],[-61.83261,9.78164],[-61.82792,9.82729],[-61.80958,9.83125],[-61.66271,9.79417],[-61.61792,9.79708],[-61.64542,9.82667],[-61.58385,9.806],[-61.67208,9.89875],[-61.63958,9.89917],[-61.53931,9.84653],[-61.42347,9.75736],[-61.45792,9.81292],[-61.48486,9.82014],[-61.50958,9.84792],[-61.43681,9.81736],[-61.21319,9.59514],[-61.00958,9.53917],[-60.96653,9.50618],[-60.96599,9.48271],[-60.94375,9.49583],[-60.87931,9.47069],[-60.79375,9.3675],[-60.78417,9.31875],[-60.80958,9.28833],[-60.81708,9.30042],[-60.82187,9.27125],[-60.85708,9.26292],[-60.85431,9.23931],[-60.86868,9.25264],[-60.88347,9.23014],[-60.92351,9.22771],[-60.98956,9.18254],[-60.90097,9.19403],[-60.928,9.17581],[-60.87375,9.19667],[-60.84499,9.19041],[-60.77042,9.23417],[-60.72958,9.1825],[-60.77097,9.17986],[-60.75333,9.13708],[-60.78542,9.10917],[-60.81208,9.11208],[-60.81903,9.07215],[-60.7575,9.05958],[-60.82125,8.98875],[-60.81125,8.96458],[-60.79903,8.98986],[-60.78375,8.98708],[-60.76799,8.92903],[-60.82375,8.92875],[-60.84729,8.91396],[-60.83069,8.87736],[-60.86238,8.86683],[-60.77771,8.87042],[-60.73215,8.88847],[-60.78319,8.85236],[-60.79153,8.81799],[-60.80487,8.81491],[-60.79333,8.80292],[-60.82094,8.77544],[-60.78764,8.79597],[-60.76118,8.84181],[-60.71875,8.85833],[-60.71681,8.83431],[-60.73875,8.82062],[-60.71132,8.82597],[-60.68458,8.78437],[-60.71448,8.77837],[-60.73917,8.74458],[-60.77236,8.74153],[-60.7975,8.71042],[-60.8025,8.67208],[-60.82663,8.65262],[-60.81438,8.63937],[-60.78403,8.69986],[-60.75792,8.70708],[-60.77625,8.71062],[-60.77458,8.73042],[-60.69375,8.75042],[-60.66479,8.7825],[-60.69542,8.70854],[-60.74736,8.70431],[-60.57417,8.66375],[-60.59292,8.64],[-60.62313,8.63396],[-60.66875,8.65125],[-60.76792,8.63646],[-60.75292,8.62417],[-60.81736,8.61931],[-60.82417,8.63458],[-60.85292,8.62292],[-60.83875,8.60917],[-60.89236,8.61931],[-60.90958,8.63708],[-60.94958,8.63],[-60.99412,8.58868],[-60.9765,8.57261],[-60.95514,8.57431],[-60.97486,8.58903],[-60.95597,8.60986],[-60.92979,8.60188],[-60.94458,8.57875],[-60.92486,8.59486],[-60.78485,8.58688],[-60.72208,8.60812],[-60.62125,8.5475],[-60.47194,8.52192],[-60.42986,8.56819],[-60.40597,8.57431],[-60.42319,8.59264],[-60.41069,8.62653],[-60.36292,8.6325],[-60.18792,8.62899],[-60.04458,8.57833],[-59.93583,8.48792],[-59.84486,8.36264],[-59.78179,8.34181],[-59.75982,8.35144],[-59.81208,8.40042],[-59.73917,8.39375],[-59.22097,8.09486],[-59.10514,8.01319],[-58.93708,7.81792],[-58.82958,7.73125],[-58.76813,7.62792],[-58.73958,7.63],[-58.67792,7.60146],[-58.49125,7.35667],[-58.47667,7.31125],[-58.48786,7.18658],[-58.47703,7.06916],[-58.46917,7.09458],[-58.46486,7.05514],[-58.40542,6.99792],[-58.40315,6.97672],[-58.34604,6.94625],[-58.36708,6.93375],[-58.32958,6.88583],[-58.25958,6.86333],[-58.17615,6.80704],[-58.16458,6.82688],[-58.11958,6.82667],[-58.02208,6.79917],[-57.81958,6.62875],[-57.79958,6.59203],[-57.62931,6.45153],[-57.58208,6.38583],[-57.53583,6.29042],[-57.53199,6.19371],[-57.51833,6.32458],[-57.49542,6.34167],[-57.43,6.32542],[-57.32313,6.25688],[-57.22958,6.17792],[-57.17625,6.10875],[-57.13903,5.92014],[-57.08208,5.91826],[-57.06264,5.94868],[-57.01539,5.96359],[-56.96292,6.015],[-56.85458,5.98667],[-56.66542,5.98167],[-56.56083,5.94042]],[[-46.57774,-0.98186],[-46.57542,-0.98174],[-46.57625,-0.97958],[-46.57774,-0.98186]],[[-52.175,4.825],[-52.17083,4.82],[-52.17083,4.825],[-52.175,4.825]],[[-52.12764,4.79069],[-52.125,4.79167],[-52.129,4.79167],[-52.12764,4.79069]],[[-52.09203,4.7625],[-52.06701,4.74403],[-52.03333,4.72924],[-52.08333,4.7625],[-52.09203,4.7625]],[[-52.025,4.72917],[-52.02465,4.71278],[-52.01875,4.71042],[-52.025,4.72917]],[[-52.01333,4.71125],[-52.0125,4.7125],[-52.01458,4.7125],[-52.01333,4.71125]],[[-52.00967,4.70713],[-52.00833,4.70833],[-52.01061,4.70833],[-52.00967,4.70713]],[[-52.00417,4.70417],[-52.00458,4.6975],[-52.00417,4.69681],[-52.00417,4.70417]],[[-52.0025,4.69208],[-51.99417,4.62458],[-51.9625,4.55458],[-51.99167,4.62083],[-52.0025,4.69208]],[[-51.95833,4.55417],[-51.95542,4.53125],[-51.95417,4.53124],[-51.95833,4.55417]],[[-51.94111,4.67595],[-51.94194,4.67595],[-51.94111,4.5311],[-51.94111,4.67595]],[[-51.92917,4.53958],[-51.92917,4.53092],[-51.92885,4.53092],[-51.92917,4.53958]],[[-51.92917,4.53958],[-51.92667,4.62125],[-51.92558,4.62917],[-51.92917,4.62917],[-51.92917,4.53958]],[[-51.925,4.63458],[-51.91625,4.65042],[-51.91258,4.6625],[-51.925,4.64583],[-51.925,4.63458]],[[-51.90847,4.67014],[-51.86708,4.66625],[-51.79687,4.60958],[-51.77,4.47792],[-51.75978,4.45944],[-51.74592,4.44692],[-51.75297,4.438],[-51.75146,4.41938],[-51.74514,4.41736],[-51.73785,4.40653],[-51.71201,4.38903],[-51.69125,4.39458],[-51.70363,4.37917],[-51.6875,4.37917],[-51.6875,4.39583],[-51.7125,4.39167],[-51.74167,4.42083],[-51.75,4.42083],[-51.74583,4.44583],[-51.73333,4.44583],[-51.72917,4.45833],[-51.74292,4.44708],[-51.76667,4.475],[-51.77917,4.58333],[-51.80417,4.62917],[-51.85417,4.67083],[-51.90847,4.67014]],[[-51.70687,4.37604],[-51.7175,4.35792],[-51.71833,4.34625],[-51.71564,4.32517],[-51.70601,4.3016],[-51.65995,4.22635],[-51.63562,4.20292],[-51.60461,4.20148],[-51.59773,4.23346],[-51.65417,4.22917],[-51.7,4.29583],[-51.71667,4.3375],[-51.70687,4.37604]],[[-51.59569,4.23986],[-51.59208,4.24167],[-51.59583,4.23946],[-51.59569,4.23986]],[[-51.58208,4.24083],[-51.56833,4.22875],[-51.5625,4.20375],[-51.55833,4.19458],[-51.56667,4.23333],[-51.58208,4.24083]],[[-51.55667,4.19042],[-51.55417,4.19167],[-51.55729,4.19167],[-51.55667,4.19042]],[[-51.5364,4.18836],[-51.5375,4.19167],[-51.5375,4.18817],[-51.5364,4.18836]],[[-51.54167,4.2],[-51.54083,4.22458],[-51.54167,4.22708],[-51.54167,4.2]],[[-51.54583,4.22917],[-51.545,4.23708],[-51.54583,4.23875],[-51.54583,4.22917]],[[-51.55,4.24167],[-51.54917,4.24625],[-51.55,4.24875],[-51.55,4.24167]],[[-51.55075,4.25],[-51.55333,4.25458],[-51.55417,4.25653],[-51.55075,4.25]],[[-51.55494,4.25833],[-51.5575,4.26375],[-51.55833,4.26625],[-51.55494,4.25833]],[[-51.5625,4.26667],[-51.56167,4.27542],[-51.5625,4.27875],[-51.5625,4.26667]],[[-51.56667,4.27917],[-51.56583,4.28958],[-51.56667,4.29375],[-51.56667,4.27917]],[[-51.57083,4.29583],[-51.57,4.31375],[-51.57083,4.32125],[-51.57083,4.29583]],[[-51.5713,4.325],[-51.575,4.35417],[-51.575,4.325],[-51.5713,4.325]],[[-51.56917,4.36375],[-51.56667,4.37458],[-51.56472,4.38701],[-51.5625,4.39042],[-51.55448,4.4125],[-51.56917,4.36375]],[[-51.55333,4.41625],[-51.55417,4.42083],[-51.55417,4.41375],[-51.55333,4.41625]],[[-51.54875,4.4275],[-51.55,4.42917],[-51.55,4.42542],[-51.54875,4.4275]],[[-51.54521,4.43271],[-51.54583,4.43333],[-51.54583,4.4317],[-51.54521,4.43271]],[[-51.54167,4.4375],[-51.54167,4.43715],[-51.5413,4.4375],[-51.54167,4.4375]],[[-51.5375,4.44167],[-51.5375,4.44092],[-51.53625,4.44167],[-51.5375,4.44167]],[[-51.52917,4.44583],[-51.39431,4.36486],[-51.38625,4.35125],[-51.29458,4.26042],[-51.27736,4.23264],[-51.25153,4.19764],[-51.24208,4.18625],[-51.23847,4.18403],[-51.1975,4.11292],[-51.17083,3.96667],[-51.19583,4.12083],[-51.27917,4.25417],[-51.42083,4.39167],[-51.49167,4.4375],[-51.52917,4.44583]],[[-51.17083,3.9625],[-51.17883,3.853],[-51.175,3.82117],[-51.17083,3.9625]],[[-51.15878,3.82047],[-51.1625,3.825],[-51.1625,3.82045],[-51.15878,3.82047]],[[-51.15833,3.82625],[-51.15583,3.83708],[-51.15437,3.84583],[-51.15833,3.82625]],[[-51.1525,3.85458],[-51.12417,3.90833],[-51.09792,3.91083],[-51.07625,3.8925],[-51.08878,3.70922],[-51.08576,3.61208],[-51.0775,3.54792],[-51.09161,3.4625],[-51.0875,3.4625],[-51.075,3.525],[-51.0875,3.70417],[-51.075,3.9],[-51.0875,3.9125],[-51.125,3.9125],[-51.1525,3.85458]],[[-51.09264,3.46014],[-51.09167,3.45833],[-51.09167,3.46238],[-51.09264,3.46014]],[[-51.09625,3.45625],[-51.09583,3.45417],[-51.09583,3.45728],[-51.09625,3.45625]],[[-51.09583,3.44167],[-51.0925,3.38542],[-51.0875,3.36431],[-51.09583,3.44167]],[[-51.08583,3.35958],[-51.04833,3.25458],[-51.03333,3.21875],[-51.03699,3.17083],[-51.03333,3.17083],[-51.02917,3.22083],[-51.08583,3.35958]],[[-51.04042,3.16563],[-51.04195,3.13167],[-51.03069,3.10764],[-51.00833,3.07917],[-51.0375,3.125],[-51.04042,3.16563]],[[-51.00833,3.06667],[-51.0125,3.06792],[-51.01625,3.0625],[-51.00833,3.06667]],[[-51.0175,3.05542],[-51.01792,3.03958],[-50.99514,3.00132],[-50.99167,2.99985],[-51.0175,3.05542]],[[-50.9875,2.97083],[-50.98292,2.93625],[-50.9625,2.90485],[-50.9875,2.97083]],[[-50.96125,2.90396],[-50.95833,2.90417],[-50.96154,2.90417],[-50.96125,2.90396]],[[-50.95687,2.89813],[-50.95417,2.9],[-50.95821,2.9],[-50.95687,2.89813]],[[-50.95069,2.89035],[-50.95,2.89167],[-50.9522,2.89167],[-50.95069,2.89035]],[[-50.94667,2.88375],[-50.94583,2.87958],[-50.94859,2.8875],[-50.94667,2.88375]],[[-50.94667,2.84875],[-50.94583,2.84167],[-50.94583,2.85042],[-50.94667,2.84875]],[[-50.94912,2.8375],[-50.94583,2.82625],[-50.94583,2.8375],[-50.94912,2.8375]],[[-50.94552,2.825],[-50.94167,2.8125],[-50.94167,2.825],[-50.94552,2.825]],[[-50.94583,2.80958],[-50.92083,2.80514],[-50.92083,2.80833],[-50.94583,2.80958]],[[-50.91542,2.80333],[-50.9125,2.80417],[-50.91792,2.80417],[-50.91542,2.80333]],[[-50.90583,2.77375],[-50.90396,2.75625],[-50.88417,2.73958],[-50.88343,2.68512],[-50.84583,2.63792],[-50.8469,2.59411],[-50.83333,2.53708],[-50.84167,2.64167],[-50.87917,2.6875],[-50.88333,2.75],[-50.90583,2.77375]],[[-50.82083,2.52917],[-50.83583,2.52708],[-50.8325,2.50941],[-50.82083,2.52917]],[[-50.83652,2.50719],[-50.83538,2.50417],[-50.83339,2.50779],[-50.83652,2.50719]],[[-47.4495,-0.75833],[-47.42758,-0.76196],[-47.42792,-0.74083],[-47.43097,-0.72931],[-47.43375,-0.72875],[-47.45021,-0.75307],[-47.42917,-0.7375],[-47.42917,-0.75833],[-47.4495,-0.75833]],[[-47.4577,-0.69746],[-47.45035,-0.71764],[-47.43229,-0.72625],[-47.44931,-0.70014],[-47.4577,-0.69746]],[[-47.46542,-0.61021],[-47.46653,-0.59715],[-47.47625,-0.59208],[-47.42083,-0.58333],[-47.475,-0.5875],[-47.47917,-0.59583],[-47.46542,-0.61021]],[[-47.41917,-0.58792],[-47.41667,-0.5875],[-47.41958,-0.5875],[-47.41917,-0.58792]],[[-47.41458,-0.5925],[-47.4125,-0.59167],[-47.41513,-0.59167],[-47.41458,-0.5925]],[[-47.4125,-0.60833],[-47.4125,-0.60708],[-47.41313,-0.60833],[-47.4125,-0.60833]],[[-47.41799,-0.61847],[-47.42875,-0.64958],[-47.41688,-0.63938],[-47.41792,-0.64625],[-47.39458,-0.66833],[-47.39083,-0.63958],[-47.40417,-0.65417],[-47.41799,-0.61847]],[[-47.38889,-0.63181],[-47.36708,-0.63],[-47.35486,-0.6375],[-47.36687,-0.62021],[-47.38333,-0.61001],[-47.36667,-0.62917],[-47.38889,-0.63181]],[[-47.375,-0.60169],[-47.36667,-0.6],[-47.375,-0.6],[-47.375,-0.60169]],[[-47.36403,-0.60653],[-47.35562,-0.61313],[-47.33597,-0.61653],[-47.3425,-0.60708],[-47.36403,-0.60653]],[[-47.34458,-0.6],[-47.35,-0.6],[-47.35,-0.6006],[-47.34458,-0.6]],[[-47.3375,-0.59583],[-47.33125,-0.59667],[-47.32792,-0.59583],[-47.3375,-0.59583]],[[-47.325,-0.59339],[-47.31667,-0.5875],[-47.325,-0.5875],[-47.325,-0.59339]],[[-47.31625,-0.59167],[-47.30875,-0.59333],[-47.30417,-0.59486],[-47.31625,-0.59167]],[[-47.29646,-0.59729],[-47.29167,-0.59583],[-47.30042,-0.59583],[-47.29646,-0.59729]],[[-47.2875,-0.6],[-47.28875,-0.605],[-47.2875,-0.60708],[-47.2875,-0.6]],[[-47.28583,-0.61208],[-47.29569,-0.64486],[-47.27931,-0.63597],[-47.26069,-0.65014],[-47.25069,-0.64569],[-47.25292,-0.63708],[-47.2625,-0.62625],[-47.25833,-0.64583],[-47.275,-0.63333],[-47.2875,-0.63333],[-47.28583,-0.61208]],[[-47.25833,-0.62268],[-47.25,-0.62083],[-47.25833,-0.62083],[-47.25833,-0.62268]],[[-47.24729,-0.625],[-47.24167,-0.62653],[-47.24167,-0.625],[-47.24729,-0.625]],[[-47.22458,-0.63],[-47.22083,-0.62917],[-47.22708,-0.62917],[-47.22458,-0.63]],[[-47.21403,-0.63465],[-47.2125,-0.63333],[-47.2154,-0.63333],[-47.21403,-0.63465]],[[-47.20903,-0.64403],[-47.20833,-0.64167],[-47.21056,-0.64167],[-47.20903,-0.64403]],[[-47.2077,-0.64583],[-47.205,-0.65042],[-47.20417,-0.65208],[-47.2077,-0.64583]],[[-47.20542,-0.65708],[-47.20417,-0.67917],[-47.20417,-0.65673],[-47.20542,-0.65708]],[[-47.21208,-0.6825],[-47.23292,-0.67542],[-47.24875,-0.70042],[-47.21042,-0.68875],[-47.21042,-0.70708],[-47.20187,-0.70625],[-47.175,-0.67083],[-47.20417,-0.70417],[-47.21208,-0.6825]],[[-47.17362,-0.675],[-47.16958,-0.68125],[-47.16667,-0.69583],[-47.16667,-0.67917],[-47.17362,-0.675]],[[-47.1675,-0.70208],[-47.16597,-0.72986],[-47.17792,-0.73792],[-47.17542,-0.75542],[-47.19948,-0.75753],[-47.19889,-0.76656],[-47.17132,-0.76403],[-47.15273,-0.79748],[-47.15,-0.77292],[-47.15875,-0.7475],[-47.13931,-0.74368],[-47.11958,-0.69958],[-47.12042,-0.68375],[-47.12875,-0.68354],[-47.10042,-0.675],[-47.12917,-0.67917],[-47.12917,-0.6875],[-47.125,-0.6875],[-47.125,-0.7],[-47.14167,-0.74167],[-47.15,-0.72917],[-47.15833,-0.72917],[-47.1625,-0.76667],[-47.16667,-0.7625],[-47.1875,-0.7625],[-47.175,-0.75833],[-47.1625,-0.73333],[-47.1675,-0.70208]],[[-47.1,-0.67083],[-47.08708,-0.67958],[-47.075,-0.69875],[-47.07917,-0.68333],[-47.1,-0.67083]],[[-47.07458,-0.7],[-47.07083,-0.70417],[-47.07083,-0.7],[-47.07458,-0.7]],[[-47.08875,-0.7125],[-47.08375,-0.70396],[-47.08792,-0.70625],[-47.08875,-0.7125]],[[-47.0875,-0.71667],[-47.10479,-0.72271],[-47.08875,-0.73125],[-47.10236,-0.75681],[-47.08375,-0.76604],[-47.07708,-0.76292],[-47.07736,-0.79458],[-47.06436,-0.78791],[-47.0704,-0.80833],[-47.06667,-0.80833],[-47.0625,-0.78333],[-47.075,-0.78333],[-47.075,-0.7625],[-47.09583,-0.75417],[-47.0875,-0.74167],[-47.0875,-0.71667]],[[-47.07521,-0.81312],[-47.09158,-0.82725],[-47.09674,-0.84308],[-47.07847,-0.84653],[-47.07521,-0.81312]],[[-47.07083,-0.82083],[-47.05875,-0.81792],[-47.05069,-0.79931],[-47.03708,-0.81292],[-47.02125,-0.80875],[-47.03333,-0.80833],[-47.05417,-0.79583],[-47.07083,-0.82083]],[[-47.02917,-0.80417],[-47.03708,-0.77958],[-47.02097,-0.76667],[-47.03333,-0.7625],[-47.0375,-0.77083],[-47.0375,-0.79583],[-47.02917,-0.80417]],[[-47.01764,-0.76597],[-47.00972,-0.77194],[-47.02083,-0.7625],[-47.01764,-0.76597]],[[-47.00833,-0.76922],[-46.99958,-0.76458],[-47.00417,-0.75688],[-47.00833,-0.76922]],[[-47.00833,-0.75417],[-46.98319,-0.72181],[-46.98958,-0.71792],[-47.00833,-0.75417]],[[-46.99167,-0.71284],[-46.98625,-0.70917],[-46.98375,-0.70833],[-46.99167,-0.71284]],[[-51.09125,3.55833],[-51.09319,3.55681],[-51.09049,3.55618],[-51.09125,3.55833]],[[-47.98333,-0.675],[-47.97083,-0.66667],[-47.97083,-0.65417],[-47.98292,-0.67375],[-47.98333,-0.65833],[-47.98333,-0.675]]],[[[-51.85812,4.6675],[-51.85979,4.66563],[-51.86125,4.66781],[-51.85812,4.6675]]],[[[-52.17025,4.88675],[-52.17125,4.88875],[-52.16755,4.8883],[-52.17025,4.88675]]],[[[-52.16486,4.88882],[-52.16618,4.89014],[-52.16375,4.89125],[-52.16486,4.88882]]],[[[-52.18958,4.89188],[-52.18004,4.89433],[-52.17958,4.88958],[-52.18958,4.89188]]],[[[-52.20125,4.93125],[-52.20479,4.92625],[-52.20583,4.93458],[-52.20125,4.93125]]],[[[-52.58458,5.27875],[-52.57875,5.28292],[-52.57875,5.28042],[-52.58458,5.27875]]],[[[-52.59319,5.28903],[-52.58514,5.28514],[-52.59319,5.28597],[-52.59319,5.28903]]],[[[-52.58458,5.29333],[-52.57958,5.29708],[-52.58566,5.28983],[-52.58458,5.29333]]],[[[-53.01403,5.45931],[-53.01215,5.46111],[-53.01139,5.4584],[-53.01403,5.45931]]],[[[-53.85125,5.73917],[-53.84875,5.73917],[-53.84768,5.73779],[-53.85125,5.73917]]],[[[-53.85375,5.74],[-53.91464,5.74529],[-53.88875,5.75167],[-53.85375,5.74]]],[[[-53.98347,5.81319],[-53.98514,5.81431],[-53.98333,5.81604],[-53.98347,5.81319]]],[[[-56.34375,5.90208],[-56.34507,5.89986],[-56.34577,5.90179],[-56.34375,5.90208]]],[[[-55.28825,5.93908],[-55.28542,5.93833],[-55.28736,5.93736],[-55.28825,5.93908]]],[[[-55.31354,5.94833],[-55.31403,5.95264],[-55.30829,5.9508],[-55.31354,5.94833]]],[[[-55.33092,5.96092],[-55.33292,5.96083],[-55.33208,5.96292],[-55.33092,5.96092]]],[[[-60.94333,8.60875],[-60.94125,8.60792],[-60.94597,8.60764],[-60.94333,8.60875]]],[[[-60.92417,8.61333],[-60.92181,8.60736],[-60.93115,8.61302],[-60.92417,8.61333]]],[[[-60.73917,8.63021],[-60.73458,8.62521],[-60.74375,8.62208],[-60.73917,8.63021]]],[[[-60.74458,8.63208],[-60.74153,8.63236],[-60.74264,8.63069],[-60.74458,8.63208]]],[[[-60.70792,8.76875],[-60.71375,8.76958],[-60.70708,8.77271],[-60.70792,8.76875]]],[[[-60.64861,8.77764],[-60.64833,8.78875],[-60.63833,8.81],[-60.63083,8.78708],[-60.64861,8.77764]]],[[[-60.61486,8.83903],[-60.60965,8.83653],[-60.61458,8.83458],[-60.61486,8.83903]]],[[[-60.80687,8.87354],[-60.80319,8.875],[-60.80458,8.87333],[-60.80687,8.87354]]],[[[-60.81375,8.87542],[-60.81014,8.87764],[-60.81014,8.87514],[-60.81375,8.87542]]],[[[-60.82097,8.88868],[-60.82514,8.87931],[-60.8278,8.87859],[-60.82097,8.88868]]],[[[-60.67937,8.92667],[-60.70042,8.93542],[-60.70069,8.94153],[-60.66431,8.94736],[-60.67937,8.92667]]],[[[-60.72542,9.01167],[-60.72625,9.01375],[-60.72375,9.01377],[-60.72542,9.01167]]],[[[-60.71812,9.02229],[-60.70764,9.00681],[-60.72375,9.01042],[-60.71812,9.02229]]],[[[-60.71958,9.02833],[-60.69618,9.07931],[-60.68153,9.08118],[-60.69681,9.03431],[-60.71958,9.02833]]],[[[-60.68083,9.12708],[-60.72958,9.07417],[-60.75833,9.08875],[-60.71701,9.16014],[-60.68083,9.12708]]],[[[-60.89208,9.19646],[-60.89,9.2],[-60.88764,9.19931],[-60.89208,9.19646]]],[[[-60.88764,9.19931],[-60.84792,9.225],[-60.82542,9.21792],[-60.88764,9.19931]]],[[[-60.79465,9.23319],[-60.81313,9.23979],[-60.79375,9.24146],[-60.79465,9.23319]]],[[[-60.75917,9.26042],[-60.79583,9.26625],[-60.78292,9.285],[-60.75917,9.26042]]],[[[-61.63847,9.83569],[-61.64292,9.83292],[-61.64292,9.83625],[-61.63847,9.83569]]],[[[-62.31,9.98292],[-62.32375,9.96167],[-62.34403,9.96931],[-62.33736,9.99069],[-62.31,9.98292]]],[[[-62.23667,10.04958],[-62.22583,10.02542],[-62.23725,10.00533],[-62.27125,9.97917],[-62.29042,9.98292],[-62.30569,9.94597],[-62.27958,10.05625],[-62.23667,10.04958]]],[[[-47.07917,-0.83333],[-47.0875,-0.82917],[-47.07917,-0.82917],[-47.07917,-0.83333]]],[[[-47.15417,-0.77917],[-47.1625,-0.76667],[-47.15417,-0.77083],[-47.15417,-0.77917]]],[[[-47.15375,-0.73448],[-47.15375,-0.73042],[-47.1525,-0.73208],[-47.15375,-0.73448]]],[[[-47.45417,-0.7],[-47.45,-0.70417],[-47.45417,-0.70417],[-47.45417,-0.7]]],[[[-47.23347,-0.68903],[-47.23646,-0.68979],[-47.23292,-0.68708],[-47.23347,-0.68903]]],[[[-46.43506,-14.75531],[-46.43381,-14.75302],[-46.43312,-14.75476],[-46.43506,-14.75531]]],[[[-45.14333,-1.47802],[-45.14042,-1.46958],[-45.14101,-1.47872],[-45.14333,-1.47802]]],[[[-45.09729,-1.45042],[-45.09569,-1.44903],[-45.09403,-1.45014],[-45.09729,-1.45042]]],[[[-45.16069,-1.45868],[-45.15575,-1.43142],[-45.15292,-1.43042],[-45.16069,-1.45868]]],[[[-45.09771,-1.42458],[-45.07514,-1.42847],[-45.07258,-1.45942],[-45.10333,-1.42375],[-45.07417,-1.37167],[-45.09771,-1.42458]]],[[[-45.40458,-1.41042],[-45.41917,-1.40708],[-45.40681,-1.39764],[-45.40458,-1.41042]]],[[[-45.0925,-1.37958],[-45.11069,-1.41319],[-45.12542,-1.38833],[-45.11486,-1.36347],[-45.0925,-1.37958]]],[[[-45.14431,-1.38097],[-45.14917,-1.39042],[-45.14819,-1.38181],[-45.14431,-1.38097]]],[[[-45.05042,-1.36542],[-45.03917,-1.38563],[-45.045,-1.40083],[-45.05042,-1.36542]]],[[[-45.65931,-1.37236],[-45.65819,-1.37069],[-45.65625,-1.37208],[-45.65931,-1.37236]]],[[[-45.49492,-1.33692],[-45.49653,-1.33264],[-45.49458,-1.33208],[-45.49492,-1.33692]]],[[[-45.57583,-1.26958],[-45.56542,-1.26083],[-45.57308,-1.27408],[-45.57583,-1.26958]]],[[[-45.63583,-1.19625],[-45.63097,-1.34319],[-45.65125,-1.36917],[-45.70368,-1.36597],[-45.68167,-1.3475],[-45.70292,-1.30667],[-45.69236,-1.27431],[-45.66125,-1.25458],[-45.66292,-1.27375],[-45.65542,-1.27271],[-45.64625,-1.25167],[-45.65917,-1.24875],[-45.64458,-1.24542],[-45.64417,-1.17667],[-45.62792,-1.12292],[-45.61333,-1.16625],[-45.63583,-1.19625]]],[[[-45.65125,-1.23042],[-45.64931,-1.23403],[-45.65187,-1.23375],[-45.65125,-1.23042]]],[[[-45.66875,-1.22125],[-45.67,-1.25125],[-45.69312,-1.26458],[-45.71,-1.23417],[-45.69403,-1.19181],[-45.66875,-1.22125]]],[[[-45.53042,-1.22375],[-45.56792,-1.22917],[-45.59458,-1.24187],[-45.57375,-1.1925],[-45.53931,-1.20597],[-45.53042,-1.22375]]],[[[-45.8725,-1.21042],[-45.87083,-1.20917],[-45.86917,-1.21042],[-45.8725,-1.21042]]],[[[-45.67597,-1.19597],[-45.67375,-1.19542],[-45.67486,-1.19819],[-45.67597,-1.19597]]],[[[-45.68236,-1.19014],[-45.68042,-1.18958],[-45.68187,-1.19354],[-45.68236,-1.19014]]],[[[-45.68868,-1.18847],[-45.68771,-1.18437],[-45.68625,-1.18958],[-45.68868,-1.18847]]],[[[-45.89764,-1.15903],[-45.90375,-1.16292],[-45.89733,-1.15611],[-45.89764,-1.15903]]],[[[-45.98979,-1.14292],[-45.99264,-1.14819],[-45.99521,-1.14917],[-45.98979,-1.14292]]],[[[-45.8275,-1.13292],[-45.80625,-1.12437],[-45.80347,-1.14319],[-45.82208,-1.15417],[-45.8275,-1.13292]]],[[[-45.93583,-1.09875],[-45.93431,-1.10069],[-45.93791,-1.10061],[-45.93583,-1.09875]]],[[[-46.00937,-1.075],[-46.01486,-1.07399],[-46.00854,-1.07187],[-46.00937,-1.075]]],[[[-46.42986,-1.01236],[-46.44875,-1.01708],[-46.43347,-1.00653],[-46.42986,-1.01236]]],[[[-46.38417,-1.00542],[-46.37486,-1.01907],[-46.37942,-1.02158],[-46.38417,-1.00542]]],[[[-46.12792,-0.98937],[-46.13083,-0.99708],[-46.13375,-0.98875],[-46.12792,-0.98937]]],[[[-46.31264,-0.93347],[-46.30833,-0.99542],[-46.31264,-1.00653],[-46.33979,-0.95896],[-46.31264,-0.93347]]],[[[-46.47125,-0.96958],[-46.47375,-0.96604],[-46.46924,-0.96472],[-46.47125,-0.96958]]],[[[-46.405,-0.96292],[-46.43597,-0.98819],[-46.40625,-0.94083],[-46.405,-0.96292]]],[[[-46.60194,-0.94517],[-46.62708,-0.96],[-46.62931,-0.95903],[-46.60194,-0.94517]]],[[[-46.14375,-0.94542],[-46.15333,-0.93292],[-46.14542,-0.92625],[-46.14375,-0.94542]]],[[[-46.4134,-0.92139],[-46.42569,-0.92319],[-46.42625,-0.92125],[-46.4134,-0.92139]]],[[[-46.5324,-0.89958],[-46.52958,-0.89875],[-46.53104,-0.90229],[-46.5324,-0.89958]]],[[[-46.74979,-0.81021],[-46.74771,-0.81146],[-46.75097,-0.81236],[-46.74979,-0.81021]]],[[[-46.71125,-0.79875],[-46.72208,-0.79104],[-46.73104,-0.78146],[-46.71208,-0.7825],[-46.71125,-0.79875]]],[[[-47.06542,-0.78375],[-47.06431,-0.78569],[-47.06625,-0.78625],[-47.06542,-0.78375]]],[[[-46.97917,-0.775],[-46.975,-0.77917],[-46.97917,-0.77917],[-46.97917,-0.775]]],[[[-46.86937,-0.75187],[-46.86438,-0.75021],[-46.86319,-0.75236],[-46.86937,-0.75187]]],[[[-44.66375,-3.16083],[-44.64847,-3.16014],[-44.64514,-3.17486],[-44.66486,-3.17653],[-44.66375,-3.16083]]],[[[-44.665,-2.93167],[-44.63938,-2.91542],[-44.66167,-2.94583],[-44.665,-2.93167]]],[[[-44.47583,-2.73042],[-44.47667,-2.89458],[-44.49167,-2.92979],[-44.47986,-2.95868],[-44.58312,-3.03208],[-44.64167,-2.97375],[-44.61375,-2.94833],[-44.59681,-2.90132],[-44.57868,-2.9117],[-44.58875,-2.81542],[-44.48958,-2.72417],[-44.47583,-2.73042]]],[[[-44.58903,-2.86847],[-44.59014,-2.87819],[-44.59236,-2.87819],[-44.58903,-2.86847]]],[[[-42.04809,-2.78509],[-42.04875,-2.78292],[-42.04542,-2.78542],[-42.04809,-2.78509]]],[[[-42.23292,-2.78542],[-42.23125,-2.76917],[-42.22875,-2.78479],[-42.23292,-2.78542]]],[[[-42.02,-2.76958],[-42.02236,-2.77736],[-42.02083,-2.76792],[-42.02,-2.76958]]],[[[-44.09625,-2.75208],[-44.09604,-2.74819],[-44.09417,-2.74917],[-44.09625,-2.75208]]],[[[-41.77681,-2.74431],[-41.77646,-2.75354],[-41.78819,-2.74569],[-41.77681,-2.74431]]],[[[-44.09208,-2.74875],[-44.09417,-2.74917],[-44.09292,-2.74583],[-44.09208,-2.74875]]],[[[-44.07375,-2.73625],[-44.07167,-2.73875],[-44.07333,-2.74625],[-44.07375,-2.73625]]],[[[-42.36542,-2.69833],[-42.34069,-2.71653],[-42.37181,-2.70319],[-42.36542,-2.69833]]],[[[-42.73688,-2.57667],[-42.73577,-2.57351],[-42.73458,-2.57625],[-42.73688,-2.57667]]],[[[-42.76875,-2.55833],[-42.77042,-2.54708],[-42.75278,-2.56049],[-42.76875,-2.55833]]],[[[-44.36625,-2.54292],[-44.36431,-2.54347],[-44.36562,-2.54479],[-44.36625,-2.54292]]],[[[-44.37167,-2.52542],[-44.3625,-2.52208],[-44.36354,-2.52812],[-44.37167,-2.52542]]],[[[-43.68042,-2.50812],[-43.67958,-2.50458],[-43.67864,-2.50747],[-43.68042,-2.50812]]],[[[-43.47292,-2.47583],[-43.46417,-2.48208],[-43.46431,-2.48486],[-43.47292,-2.47583]]],[[[-43.77542,-2.47625],[-43.77771,-2.47514],[-43.77508,-2.47425],[-43.77542,-2.47625]]],[[[-43.85875,-2.44417],[-43.85875,-2.42833],[-43.8525,-2.43625],[-43.85875,-2.44417]]],[[[-44.12669,-2.42737],[-44.13056,-2.42861],[-44.12875,-2.42667],[-44.12669,-2.42737]]],[[[-44.42042,-2.41625],[-44.42583,-2.42542],[-44.42562,-2.41521],[-44.42042,-2.41625]]],[[[-43.78938,-2.41542],[-43.78187,-2.37479],[-43.75458,-2.37667],[-43.78938,-2.41542]]],[[[-43.59375,-2.415],[-43.61125,-2.37667],[-43.54208,-2.36125],[-43.56181,-2.42403],[-43.59375,-2.415]]],[[[-43.53653,-2.40653],[-43.52958,-2.36958],[-43.51264,-2.37431],[-43.50681,-2.40653],[-43.53653,-2.40653]]],[[[-43.62236,-2.29097],[-43.61625,-2.29375],[-43.62236,-2.29319],[-43.62236,-2.29097]]],[[[-43.63069,-2.28931],[-43.62431,-2.29069],[-43.63069,-2.29181],[-43.63069,-2.28931]]],[[[-43.59792,-2.29333],[-43.60292,-2.27812],[-43.59167,-2.28625],[-43.59792,-2.29333]]],[[[-44.4675,-2.06917],[-44.46792,-2.07583],[-44.48042,-2.07729],[-44.4675,-2.06917]]],[[[-44.54042,-2.02167],[-44.53792,-2.01958],[-44.53696,-2.02196],[-44.54042,-2.02167]]],[[[-44.59875,-1.79542],[-44.59633,-1.79587],[-44.59792,-1.7975],[-44.59875,-1.79542]]],[[[-44.7575,-1.68917],[-44.73958,-1.68],[-44.73083,-1.68833],[-44.74458,-1.69833],[-44.7575,-1.68917]]],[[[-44.74625,-1.68],[-44.74875,-1.68042],[-44.74437,-1.67812],[-44.74625,-1.68]]],[[[-44.74188,-1.66521],[-44.72792,-1.65833],[-44.725,-1.67042],[-44.72896,-1.67312],[-44.74188,-1.66521]]],[[[-44.78792,-1.56375],[-44.78604,-1.56438],[-44.78825,-1.56575],[-44.78792,-1.56375]]],[[[-44.83,-1.56708],[-44.82729,-1.55833],[-44.82437,-1.56583],[-44.83,-1.56708]]],[[[-44.74125,-1.51708],[-44.74514,-1.51625],[-44.74215,-1.51514],[-44.74125,-1.51708]]],[[[-44.835,-1.53708],[-44.78187,-1.48792],[-44.79319,-1.46764],[-44.75097,-1.46597],[-44.74554,-1.52042],[-44.79708,-1.52125],[-44.80792,-1.56083],[-44.82729,-1.55833],[-44.835,-1.53708]]],[[[-44.87069,-1.49236],[-44.86569,-1.48965],[-44.86514,-1.49236],[-44.87069,-1.49236]]],[[[-44.945,-1.26542],[-44.87382,-1.28653],[-44.86792,-1.3025],[-44.89208,-1.31125],[-44.88875,-1.32208],[-44.86882,-1.31403],[-44.86708,-1.32792],[-44.89458,-1.34958],[-44.89208,-1.33542],[-44.91292,-1.32208],[-44.90542,-1.34062],[-44.94597,-1.37903],[-45.00583,-1.40042],[-45.02167,-1.38125],[-45.01264,-1.34569],[-45.03208,-1.33083],[-44.97625,-1.32125],[-45.00208,-1.29625],[-44.98417,-1.26708],[-44.94354,-1.28365],[-44.945,-1.26542]]]]}}]}